<?xml version="1.0" encoding="UTF-8"?>
<gpx creator="Wikiloc - https://www.wikiloc.com" version="1.1" xmlns="http://www.topografix.com/GPX/1/1" xmlns:xsi="http://www.w3.org/2001/XMLSchema-instance" xsi:schemaLocation="http://www.topografix.com/GPX/1/1 http://www.topografix.com/GPX/1/1/gpx.xsd">
  <metadata>
    <name>Wikiloc - Rupitin</name>
    <author>
      <name>Marquina</name>
      <link href="https://www.wikiloc.com/wikiloc/user.do?id=39942">
        <text>Marquina on Wikiloc</text>
      </link>
    </author>
    <link href="https://www.wikiloc.com/hiking-trails/rupitin-268911">
      <text>Rupitin on Wikiloc</text>
    </link>
    <time>2007-09-01T23:03:01Z</time>
  </metadata>
  <trk>
    <name>Rupitin</name>
    <cmt>Ruta circular desde Aldeadávila, con un pequeño desvío hasta el paraje de los Túmbaros. Aproximadamente 17 kilómetros con un importante desnivel.</cmt>
    <desc>Ruta circular desde Aldeadávila, con un pequeño desvío hasta el paraje de los Túmbaros. Aproximadamente 17 kilómetros con un importante desnivel.</desc>
    <trkseg>
      <trkpt lat="41.238098" lon="-6.647301">
        <ele>431.362</ele>
        <time>2025-06-28T12:43:44.094222908Z</time>
      </trkpt>
      <trkpt lat="41.237927" lon="-6.647250">
        <ele>485.683</ele>
        <time>2025-06-28T12:44:24.094227947Z</time>
      </trkpt>
      <trkpt lat="41.237793" lon="-6.647103">
        <ele>489.011</ele>
        <time>2025-06-28T12:45:04.094231784Z</time>
      </trkpt>
      <trkpt lat="41.237972" lon="-6.647152">
        <ele>493.306</ele>
        <time>2025-06-28T12:45:44.094235361Z</time>
      </trkpt>
      <trkpt lat="41.238004" lon="-6.647068">
        <ele>496.218</ele>
        <time>2025-06-28T12:46:24.094238717Z</time>
      </trkpt>
      <trkpt lat="41.237917" lon="-6.646873">
        <ele>499.582</ele>
        <time>2025-06-28T12:47:04.094241633Z</time>
      </trkpt>
      <trkpt lat="41.237865" lon="-6.646654">
        <ele>503.434</ele>
        <time>2025-06-28T12:47:44.094244528Z</time>
      </trkpt>
      <trkpt lat="41.237782" lon="-6.646465">
        <ele>505.375</ele>
        <time>2025-06-28T12:48:24.094247404Z</time>
      </trkpt>
      <trkpt lat="41.237658" lon="-6.646298">
        <ele>503.937</ele>
        <time>2025-06-28T12:49:04.094250289Z</time>
      </trkpt>
      <trkpt lat="41.237554" lon="-6.646123">
        <ele>502.957</ele>
        <time>2025-06-28T12:49:44.094253144Z</time>
      </trkpt>
      <trkpt lat="41.237394" lon="-6.645991">
        <ele>499.128</ele>
        <time>2025-06-28T12:50:24.094256110Z</time>
      </trkpt>
      <trkpt lat="41.237259" lon="-6.646478">
        <ele>500.089</ele>
        <time>2025-06-28T12:51:04.094259146Z</time>
      </trkpt>
      <trkpt lat="41.237089" lon="-6.646680">
        <ele>502.417</ele>
        <time>2025-06-28T12:51:44.094262141Z</time>
      </trkpt>
      <trkpt lat="41.236923" lon="-6.646795">
        <ele>505.306</ele>
        <time>2025-06-28T12:52:24.094265077Z</time>
      </trkpt>
      <trkpt lat="41.236742" lon="-6.646887">
        <ele>502.954</ele>
        <time>2025-06-28T12:53:04.094267962Z</time>
      </trkpt>
      <trkpt lat="41.236522" lon="-6.646986">
        <ele>503.458</ele>
        <time>2025-06-28T12:53:44.094270818Z</time>
      </trkpt>
      <trkpt lat="41.236465" lon="-6.647164">
        <ele>501.510</ele>
        <time>2025-06-28T12:54:24.094273743Z</time>
      </trkpt>
      <trkpt lat="41.236400" lon="-6.647406">
        <ele>504.331</ele>
        <time>2025-06-28T12:55:04.094276668Z</time>
      </trkpt>
      <trkpt lat="41.236297" lon="-6.647593">
        <ele>501.043</ele>
        <time>2025-06-28T12:55:44.097168419Z</time>
      </trkpt>
      <trkpt lat="41.236261" lon="-6.647830">
        <ele>497.633</ele>
        <time>2025-06-28T12:56:24.097172296Z</time>
      </trkpt>
      <trkpt lat="41.236224" lon="-6.648064">
        <ele>494.365</ele>
        <time>2025-06-28T12:57:04.097175512Z</time>
      </trkpt>
      <trkpt lat="41.236104" lon="-6.648239">
        <ele>493.368</ele>
        <time>2025-06-28T12:57:44.097178558Z</time>
      </trkpt>
      <trkpt lat="41.235986" lon="-6.648410">
        <ele>489.414</ele>
        <time>2025-06-28T12:58:24.097181634Z</time>
      </trkpt>
      <trkpt lat="41.235847" lon="-6.648516">
        <ele>485.606</ele>
        <time>2025-06-28T12:59:04.097184619Z</time>
      </trkpt>
      <trkpt lat="41.235989" lon="-6.648590">
        <ele>482.798</ele>
        <time>2025-06-28T12:59:44.097187545Z</time>
      </trkpt>
      <trkpt lat="41.236097" lon="-6.648617">
        <ele>478.922</ele>
        <time>2025-06-28T13:00:24.097194999Z</time>
      </trkpt>
      <trkpt lat="41.235975" lon="-6.648700">
        <ele>475.074</ele>
        <time>2025-06-28T13:01:04.097198195Z</time>
      </trkpt>
      <trkpt lat="41.235842" lon="-6.648761">
        <ele>472.175</ele>
        <time>2025-06-28T13:01:44.097201200Z</time>
      </trkpt>
      <trkpt lat="41.236001" lon="-6.648860">
        <ele>466.417</ele>
        <time>2025-06-28T13:02:24.097204226Z</time>
      </trkpt>
      <trkpt lat="41.235818" lon="-6.648844">
        <ele>464.997</ele>
        <time>2025-06-28T13:03:04.097207111Z</time>
      </trkpt>
      <trkpt lat="41.235643" lon="-6.648884">
        <ele>460.191</ele>
        <time>2025-06-28T13:03:44.097210107Z</time>
      </trkpt>
      <trkpt lat="41.235514" lon="-6.649003">
        <ele>455.881</ele>
        <time>2025-06-28T13:04:24.097213042Z</time>
      </trkpt>
      <trkpt lat="41.235441" lon="-6.649219">
        <ele>453.419</ele>
        <time>2025-06-28T13:05:04.097215928Z</time>
      </trkpt>
      <trkpt lat="41.235294" lon="-6.649378">
        <ele>452.006</ele>
        <time>2025-06-28T13:05:44.097218833Z</time>
      </trkpt>
      <trkpt lat="41.235329" lon="-6.649449">
        <ele>448.191</ele>
        <time>2025-06-28T13:06:24.097221779Z</time>
      </trkpt>
      <trkpt lat="41.235395" lon="-6.649539">
        <ele>443.835</ele>
        <time>2025-06-28T13:07:04.097224634Z</time>
      </trkpt>
      <trkpt lat="41.235236" lon="-6.649645">
        <ele>440.417</ele>
        <time>2025-06-28T13:07:44.097227529Z</time>
      </trkpt>
      <trkpt lat="41.235152" lon="-6.649725">
        <ele>437.588</ele>
        <time>2025-06-28T13:08:24.097230475Z</time>
      </trkpt>
      <trkpt lat="41.235073" lon="-6.649758">
        <ele>435.160</ele>
        <time>2025-06-28T13:09:04.097233380Z</time>
      </trkpt>
      <trkpt lat="41.234909" lon="-6.649848">
        <ele>431.890</ele>
        <time>2025-06-28T13:09:44.097236326Z</time>
      </trkpt>
      <trkpt lat="41.234804" lon="-6.649993">
        <ele>427.443</ele>
        <time>2025-06-28T13:10:24.097239311Z</time>
      </trkpt>
      <trkpt lat="41.234991" lon="-6.650016">
        <ele>421.264</ele>
        <time>2025-06-28T13:11:04.097242287Z</time>
      </trkpt>
      <trkpt lat="41.235021" lon="-6.650100">
        <ele>416.410</ele>
        <time>2025-06-28T13:11:44.097245243Z</time>
      </trkpt>
      <trkpt lat="41.234878" lon="-6.650232">
        <ele>414.906</ele>
        <time>2025-06-28T13:12:24.097248168Z</time>
      </trkpt>
      <trkpt lat="41.234719" lon="-6.650431">
        <ele>410.626</ele>
        <time>2025-06-28T13:13:04.097251104Z</time>
      </trkpt>
      <trkpt lat="41.234597" lon="-6.650580">
        <ele>408.250</ele>
        <time>2025-06-28T13:13:44.097254059Z</time>
      </trkpt>
      <trkpt lat="41.234427" lon="-6.650726">
        <ele>406.382</ele>
        <time>2025-06-28T13:14:24.097256954Z</time>
      </trkpt>
      <trkpt lat="41.234295" lon="-6.650872">
        <ele>402.473</ele>
        <time>2025-06-28T13:15:04.097259830Z</time>
      </trkpt>
      <trkpt lat="41.234485" lon="-6.650912">
        <ele>398.155</ele>
        <time>2025-06-28T13:15:44.097262695Z</time>
      </trkpt>
      <trkpt lat="41.234325" lon="-6.651000">
        <ele>393.315</ele>
        <time>2025-06-28T13:16:24.097265641Z</time>
      </trkpt>
      <trkpt lat="41.234135" lon="-6.651032">
        <ele>391.466</ele>
        <time>2025-06-28T13:17:04.097268626Z</time>
      </trkpt>
      <trkpt lat="41.233955" lon="-6.651121">
        <ele>386.629</ele>
        <time>2025-06-28T13:17:44.097291169Z</time>
      </trkpt>
      <trkpt lat="41.233823" lon="-6.651295">
        <ele>388.021</ele>
        <time>2025-06-28T13:18:24.097296078Z</time>
      </trkpt>
      <trkpt lat="41.233758" lon="-6.651524">
        <ele>388.006</ele>
        <time>2025-06-28T13:19:04.097301237Z</time>
      </trkpt>
      <trkpt lat="41.233654" lon="-6.651733">
        <ele>390.068</ele>
        <time>2025-06-28T13:19:44.097306026Z</time>
      </trkpt>
      <trkpt lat="41.233547" lon="-6.651951">
        <ele>390.432</ele>
        <time>2025-06-28T13:20:24.097309172Z</time>
      </trkpt>
      <trkpt lat="41.233437" lon="-6.652186">
        <ele>390.064</ele>
        <time>2025-06-28T13:21:04.097312078Z</time>
      </trkpt>
      <trkpt lat="41.233408" lon="-6.652413">
        <ele>387.165</ele>
        <time>2025-06-28T13:21:44.097314953Z</time>
      </trkpt>
      <trkpt lat="41.233311" lon="-6.652594">
        <ele>389.017</ele>
        <time>2025-06-28T13:22:24.097318099Z</time>
      </trkpt>
      <trkpt lat="41.233220" lon="-6.652803">
        <ele>392.487</ele>
        <time>2025-06-28T13:23:04.097321094Z</time>
      </trkpt>
      <trkpt lat="41.233090" lon="-6.653006">
        <ele>398.611</ele>
        <time>2025-06-28T13:23:44.097324120Z</time>
      </trkpt>
      <trkpt lat="41.232959" lon="-6.653202">
        <ele>399.621</ele>
        <time>2025-06-28T13:24:24.097327106Z</time>
      </trkpt>
      <trkpt lat="41.232571" lon="-6.653605">
        <ele>392.803</ele>
        <time>2025-06-28T13:25:04.097330041Z</time>
      </trkpt>
      <trkpt lat="41.232521" lon="-6.653888">
        <ele>394.306</ele>
        <time>2025-06-28T13:25:44.097332987Z</time>
      </trkpt>
      <trkpt lat="41.232187" lon="-6.654165">
        <ele>385.643</ele>
        <time>2025-06-28T13:26:24.097335902Z</time>
      </trkpt>
      <trkpt lat="41.231891" lon="-6.654402">
        <ele>385.127</ele>
        <time>2025-06-28T13:27:04.097338727Z</time>
      </trkpt>
      <trkpt lat="41.231922" lon="-6.654640">
        <ele>385.619</ele>
        <time>2025-06-28T13:27:44.097341573Z</time>
      </trkpt>
      <trkpt lat="41.232045" lon="-6.655044">
        <ele>393.330</ele>
        <time>2025-06-28T13:28:24.097344468Z</time>
      </trkpt>
      <trkpt lat="41.232102" lon="-6.655274">
        <ele>393.862</ele>
        <time>2025-06-28T13:29:04.097347324Z</time>
      </trkpt>
      <trkpt lat="41.232179" lon="-6.655477">
        <ele>394.872</ele>
        <time>2025-06-28T13:29:44.097350219Z</time>
      </trkpt>
      <trkpt lat="41.232208" lon="-6.655721">
        <ele>397.694</ele>
        <time>2025-06-28T13:30:24.097353205Z</time>
      </trkpt>
      <trkpt lat="41.232217" lon="-6.655950">
        <ele>402.057</ele>
        <time>2025-06-28T13:31:04.097356150Z</time>
      </trkpt>
      <trkpt lat="41.232230" lon="-6.656183">
        <ele>402.422</ele>
        <time>2025-06-28T13:31:44.097359096Z</time>
      </trkpt>
      <trkpt lat="41.232273" lon="-6.656424">
        <ele>396.706</ele>
        <time>2025-06-28T13:32:24.097362011Z</time>
      </trkpt>
      <trkpt lat="41.232393" lon="-6.656446">
        <ele>392.891</ele>
        <time>2025-06-28T13:33:04.097364957Z</time>
      </trkpt>
      <trkpt lat="41.232451" lon="-6.656481">
        <ele>388.095</ele>
        <time>2025-06-28T13:33:44.097367832Z</time>
      </trkpt>
      <trkpt lat="41.232451" lon="-6.656712">
        <ele>385.147</ele>
        <time>2025-06-28T13:34:24.097370677Z</time>
      </trkpt>
      <trkpt lat="41.232423" lon="-6.656962">
        <ele>381.388</ele>
        <time>2025-06-28T13:35:04.097373523Z</time>
      </trkpt>
      <trkpt lat="41.232399" lon="-6.657209">
        <ele>380.340</ele>
        <time>2025-06-28T13:35:44.097376398Z</time>
      </trkpt>
      <trkpt lat="41.232487" lon="-6.657409">
        <ele>376.530</ele>
        <time>2025-06-28T13:36:24.097379293Z</time>
      </trkpt>
      <trkpt lat="41.232590" lon="-6.657622">
        <ele>372.653</ele>
        <time>2025-06-28T13:37:04.097382269Z</time>
      </trkpt>
      <trkpt lat="41.232718" lon="-6.657799">
        <ele>366.904</ele>
        <time>2025-06-28T13:37:44.097385174Z</time>
      </trkpt>
      <trkpt lat="41.232801" lon="-6.658040">
        <ele>361.114</ele>
        <time>2025-06-28T13:38:24.097388100Z</time>
      </trkpt>
      <trkpt lat="41.232846" lon="-6.658287">
        <ele>357.706</ele>
        <time>2025-06-28T13:39:04.097391005Z</time>
      </trkpt>
      <trkpt lat="41.232910" lon="-6.658531">
        <ele>351.587</ele>
        <time>2025-06-28T13:39:44.097393931Z</time>
      </trkpt>
      <trkpt lat="41.232875" lon="-6.658773">
        <ele>350.121</ele>
        <time>2025-06-28T13:40:24.097396776Z</time>
      </trkpt>
      <trkpt lat="41.232840" lon="-6.659005">
        <ele>348.153</ele>
        <time>2025-06-28T13:41:04.097399672Z</time>
      </trkpt>
      <trkpt lat="41.232826" lon="-6.659224">
        <ele>347.764</ele>
        <time>2025-06-28T13:41:44.097402547Z</time>
      </trkpt>
      <trkpt lat="41.232787" lon="-6.659504">
        <ele>348.186</ele>
        <time>2025-06-28T13:42:24.097405442Z</time>
      </trkpt>
      <trkpt lat="41.232831" lon="-6.659765">
        <ele>348.656</ele>
        <time>2025-06-28T13:43:04.097408348Z</time>
      </trkpt>
      <trkpt lat="41.232826" lon="-6.660066">
        <ele>349.624</ele>
        <time>2025-06-28T13:43:44.097411303Z</time>
      </trkpt>
      <trkpt lat="41.232803" lon="-6.660326">
        <ele>353.404</ele>
        <time>2025-06-28T13:44:24.097414229Z</time>
      </trkpt>
      <trkpt lat="41.232739" lon="-6.660463">
        <ele>354.914</ele>
        <time>2025-06-28T13:45:04.097417134Z</time>
      </trkpt>
      <trkpt lat="41.232559" lon="-6.660414">
        <ele>352.506</ele>
        <time>2025-06-28T13:45:44.097420090Z</time>
      </trkpt>
      <trkpt lat="41.232356" lon="-6.660473">
        <ele>351.524</ele>
        <time>2025-06-28T13:46:24.097423005Z</time>
      </trkpt>
      <trkpt lat="41.232053" lon="-6.660711">
        <ele>351.568</ele>
        <time>2025-06-28T13:47:04.097425871Z</time>
      </trkpt>
      <trkpt lat="41.231989" lon="-6.660950">
        <ele>350.130</ele>
        <time>2025-06-28T13:47:44.097428766Z</time>
      </trkpt>
      <trkpt lat="41.231990" lon="-6.661222">
        <ele>349.671</ele>
        <time>2025-06-28T13:48:24.097431651Z</time>
      </trkpt>
      <trkpt lat="41.232044" lon="-6.661497">
        <ele>348.153</ele>
        <time>2025-06-28T13:49:04.097434517Z</time>
      </trkpt>
      <trkpt lat="41.232006" lon="-6.661694">
        <ele>352.963</ele>
        <time>2025-06-28T13:49:44.097437442Z</time>
      </trkpt>
      <trkpt lat="41.232028" lon="-6.661665">
        <ele>353.433</ele>
        <time>2025-06-28T13:50:24.097441560Z</time>
      </trkpt>
      <trkpt lat="41.232140" lon="-6.661555">
        <ele>348.123</ele>
        <time>2025-06-28T13:51:04.097448793Z</time>
      </trkpt>
      <trkpt lat="41.232139" lon="-6.661311">
        <ele>346.215</ele>
        <time>2025-06-28T13:51:44.097453602Z</time>
      </trkpt>
      <trkpt lat="41.232159" lon="-6.661082">
        <ele>346.706</ele>
        <time>2025-06-28T13:52:24.097456488Z</time>
      </trkpt>
      <trkpt lat="41.232215" lon="-6.660861">
        <ele>348.195</ele>
        <time>2025-06-28T13:53:04.097459363Z</time>
      </trkpt>
      <trkpt lat="41.232458" lon="-6.660539">
        <ele>348.699</ele>
        <time>2025-06-28T13:53:44.097462259Z</time>
      </trkpt>
      <trkpt lat="41.232643" lon="-6.660504">
        <ele>350.151</ele>
        <time>2025-06-28T13:54:24.097465114Z</time>
      </trkpt>
      <trkpt lat="41.232828" lon="-6.660551">
        <ele>350.512</ele>
        <time>2025-06-28T13:55:04.097468029Z</time>
      </trkpt>
      <trkpt lat="41.232958" lon="-6.660400">
        <ele>352.564</ele>
        <time>2025-06-28T13:55:44.097470955Z</time>
      </trkpt>
      <trkpt lat="41.232989" lon="-6.660164">
        <ele>348.654</ele>
        <time>2025-06-28T13:56:24.097480853Z</time>
      </trkpt>
      <trkpt lat="41.232988" lon="-6.659931">
        <ele>345.761</ele>
        <time>2025-06-28T13:57:04.097486183Z</time>
      </trkpt>
      <trkpt lat="41.232900" lon="-6.659712">
        <ele>347.221</ele>
        <time>2025-06-28T13:57:44.097491133Z</time>
      </trkpt>
      <trkpt lat="41.232904" lon="-6.659493">
        <ele>346.213</ele>
        <time>2025-06-28T13:58:24.097495972Z</time>
      </trkpt>
      <trkpt lat="41.232951" lon="-6.659254">
        <ele>343.806</ele>
        <time>2025-06-28T13:59:04.097501041Z</time>
      </trkpt>
      <trkpt lat="41.233007" lon="-6.658994">
        <ele>345.358</ele>
        <time>2025-06-28T13:59:44.097505900Z</time>
      </trkpt>
      <trkpt lat="41.233056" lon="-6.658737">
        <ele>347.282</ele>
        <time>2025-06-28T14:00:24.097509367Z</time>
      </trkpt>
      <trkpt lat="41.233037" lon="-6.658501">
        <ele>351.554</ele>
        <time>2025-06-28T14:01:04.097512392Z</time>
      </trkpt>
      <trkpt lat="41.233001" lon="-6.658267">
        <ele>356.885</ele>
        <time>2025-06-28T14:01:44.097517322Z</time>
      </trkpt>
      <trkpt lat="41.232953" lon="-6.658039">
        <ele>361.177</ele>
        <time>2025-06-28T14:02:24.097521229Z</time>
      </trkpt>
      <trkpt lat="41.232853" lon="-6.657844">
        <ele>364.557</ele>
        <time>2025-06-28T14:03:04.097524124Z</time>
      </trkpt>
      <trkpt lat="41.232665" lon="-6.657746">
        <ele>370.721</ele>
        <time>2025-06-28T14:03:44.097527060Z</time>
      </trkpt>
      <trkpt lat="41.232578" lon="-6.657553">
        <ele>373.641</ele>
        <time>2025-06-28T14:04:24.097530055Z</time>
      </trkpt>
      <trkpt lat="41.232502" lon="-6.657337">
        <ele>377.505</ele>
        <time>2025-06-28T14:05:04.097532971Z</time>
      </trkpt>
      <trkpt lat="41.232583" lon="-6.657112">
        <ele>378.406</ele>
        <time>2025-06-28T14:05:44.097535896Z</time>
      </trkpt>
      <trkpt lat="41.232621" lon="-6.656862">
        <ele>382.724</ele>
        <time>2025-06-28T14:06:24.097539393Z</time>
      </trkpt>
      <trkpt lat="41.232646" lon="-6.656624">
        <ele>384.248</ele>
        <time>2025-06-28T14:07:04.097544683Z</time>
      </trkpt>
      <trkpt lat="41.232562" lon="-6.656486">
        <ele>389.560</ele>
        <time>2025-06-28T14:07:44.097547899Z</time>
      </trkpt>
      <trkpt lat="41.232421" lon="-6.656434">
        <ele>395.771</ele>
        <time>2025-06-28T14:08:24.097551826Z</time>
      </trkpt>
      <trkpt lat="41.232352" lon="-6.656254">
        <ele>400.033</ele>
        <time>2025-06-28T14:09:04.097554882Z</time>
      </trkpt>
      <trkpt lat="41.232143" lon="-6.656388">
        <ele>403.423</ele>
        <time>2025-06-28T14:09:44.097558909Z</time>
      </trkpt>
      <trkpt lat="41.232056" lon="-6.656390">
        <ele>408.749</ele>
        <time>2025-06-28T14:10:24.097561915Z</time>
      </trkpt>
      <trkpt lat="41.232025" lon="-6.656173">
        <ele>414.502</ele>
        <time>2025-06-28T14:11:04.097564881Z</time>
      </trkpt>
      <trkpt lat="41.231919" lon="-6.656317">
        <ele>419.822</ele>
        <time>2025-06-28T14:11:44.097567816Z</time>
      </trkpt>
      <trkpt lat="41.231843" lon="-6.656440">
        <ele>424.106</ele>
        <time>2025-06-28T14:12:24.097570702Z</time>
      </trkpt>
      <trkpt lat="41.231821" lon="-6.656207">
        <ele>427.426</ele>
        <time>2025-06-28T14:13:04.097574749Z</time>
      </trkpt>
      <trkpt lat="41.231766" lon="-6.656383">
        <ele>430.820</ele>
        <time>2025-06-28T14:13:44.097577644Z</time>
      </trkpt>
      <trkpt lat="41.231666" lon="-6.656457">
        <ele>435.192</ele>
        <time>2025-06-28T14:14:24.097580570Z</time>
      </trkpt>
      <trkpt lat="41.231617" lon="-6.656242">
        <ele>439.573</ele>
        <time>2025-06-28T14:15:04.097583465Z</time>
      </trkpt>
      <trkpt lat="41.231537" lon="-6.656388">
        <ele>444.375</ele>
        <time>2025-06-28T14:15:44.097586331Z</time>
      </trkpt>
      <trkpt lat="41.231498" lon="-6.656613">
        <ele>451.025</ele>
        <time>2025-06-28T14:16:24.097589226Z</time>
      </trkpt>
      <trkpt lat="41.231423" lon="-6.656825">
        <ele>454.832</ele>
        <time>2025-06-28T14:17:04.097592182Z</time>
      </trkpt>
      <trkpt lat="41.231334" lon="-6.657003">
        <ele>461.192</ele>
        <time>2025-06-28T14:17:44.097595067Z</time>
      </trkpt>
      <trkpt lat="41.231319" lon="-6.656739">
        <ele>463.011</ele>
        <time>2025-06-28T14:18:24.097598033Z</time>
      </trkpt>
      <trkpt lat="41.231276" lon="-6.656628">
        <ele>467.806</ele>
        <time>2025-06-28T14:19:04.097600938Z</time>
      </trkpt>
      <trkpt lat="41.231168" lon="-6.656580">
        <ele>474.545</ele>
        <time>2025-06-28T14:19:44.097603823Z</time>
      </trkpt>
      <trkpt lat="41.231128" lon="-6.656609">
        <ele>476.099</ele>
        <time>2025-06-28T14:20:24.097606749Z</time>
      </trkpt>
      <trkpt lat="41.231066" lon="-6.656728">
        <ele>480.871</ele>
        <time>2025-06-28T14:21:04.097610235Z</time>
      </trkpt>
      <trkpt lat="41.231049" lon="-6.656502">
        <ele>483.722</ele>
        <time>2025-06-28T14:21:44.097613121Z</time>
      </trkpt>
      <trkpt lat="41.230937" lon="-6.656512">
        <ele>488.024</ele>
        <time>2025-06-28T14:22:24.097616036Z</time>
      </trkpt>
      <trkpt lat="41.230862" lon="-6.656553">
        <ele>491.474</ele>
        <time>2025-06-28T14:23:04.097618942Z</time>
      </trkpt>
      <trkpt lat="41.230823" lon="-6.656464">
        <ele>496.794</ele>
        <time>2025-06-28T14:23:44.097621917Z</time>
      </trkpt>
      <trkpt lat="41.230758" lon="-6.656466">
        <ele>500.557</ele>
        <time>2025-06-28T14:24:24.097624813Z</time>
      </trkpt>
      <trkpt lat="41.230650" lon="-6.656670">
        <ele>506.322</ele>
        <time>2025-06-28T14:25:04.097627798Z</time>
      </trkpt>
      <trkpt lat="41.230561" lon="-6.656867">
        <ele>508.706</ele>
        <time>2025-06-28T14:25:44.097630724Z</time>
      </trkpt>
      <trkpt lat="41.230502" lon="-6.657087">
        <ele>512.551</ele>
        <time>2025-06-28T14:26:24.097633659Z</time>
      </trkpt>
      <trkpt lat="41.230432" lon="-6.657195">
        <ele>516.835</ele>
        <time>2025-06-28T14:27:04.097636555Z</time>
      </trkpt>
      <trkpt lat="41.230398" lon="-6.656957">
        <ele>521.217</ele>
        <time>2025-06-28T14:27:44.097639440Z</time>
      </trkpt>
      <trkpt lat="41.230309" lon="-6.657011">
        <ele>525.578</ele>
        <time>2025-06-28T14:28:24.097642315Z</time>
      </trkpt>
      <trkpt lat="41.230288" lon="-6.656910">
        <ele>527.490</ele>
        <time>2025-06-28T14:29:04.097645211Z</time>
      </trkpt>
      <trkpt lat="41.230335" lon="-6.657028">
        <ele>541.470</ele>
        <time>2025-06-28T14:29:44.097648126Z</time>
      </trkpt>
      <trkpt lat="41.230212" lon="-6.656863">
        <ele>544.757</ele>
        <time>2025-06-28T14:30:24.097651122Z</time>
      </trkpt>
      <trkpt lat="41.230113" lon="-6.656899">
        <ele>547.600</ele>
        <time>2025-06-28T14:31:04.097654108Z</time>
      </trkpt>
      <trkpt lat="41.230035" lon="-6.657133">
        <ele>551.920</ele>
        <time>2025-06-28T14:31:44.097657103Z</time>
      </trkpt>
      <trkpt lat="41.230047" lon="-6.657346">
        <ele>552.906</ele>
        <time>2025-06-28T14:32:24.097660039Z</time>
      </trkpt>
      <trkpt lat="41.229935" lon="-6.657539">
        <ele>560.127</ele>
        <time>2025-06-28T14:33:04.097662954Z</time>
      </trkpt>
      <trkpt lat="41.229898" lon="-6.657735">
        <ele>564.041</ele>
        <time>2025-06-28T14:33:44.097665920Z</time>
      </trkpt>
      <trkpt lat="41.229741" lon="-6.657800">
        <ele>572.193</ele>
        <time>2025-06-28T14:34:24.097668835Z</time>
      </trkpt>
      <trkpt lat="41.229731" lon="-6.658010">
        <ele>578.944</ele>
        <time>2025-06-28T14:35:04.097671731Z</time>
      </trkpt>
      <trkpt lat="41.229805" lon="-6.658074">
        <ele>581.356</ele>
        <time>2025-06-28T14:35:44.097683012Z</time>
      </trkpt>
      <trkpt lat="41.229726" lon="-6.658251">
        <ele>583.256</ele>
        <time>2025-06-28T14:36:24.097686208Z</time>
      </trkpt>
      <trkpt lat="41.229660" lon="-6.658403">
        <ele>588.589</ele>
        <time>2025-06-28T14:37:04.097689193Z</time>
      </trkpt>
      <trkpt lat="41.229489" lon="-6.658400">
        <ele>590.406</ele>
        <time>2025-06-28T14:37:44.097692179Z</time>
      </trkpt>
      <trkpt lat="41.229371" lon="-6.658575">
        <ele>593.826</ele>
        <time>2025-06-28T14:38:24.097695074Z</time>
      </trkpt>
      <trkpt lat="41.229234" lon="-6.658521">
        <ele>597.606</ele>
        <time>2025-06-28T14:39:04.097698020Z</time>
      </trkpt>
      <trkpt lat="41.229103" lon="-6.658367">
        <ele>601.950</ele>
        <time>2025-06-28T14:39:44.097700935Z</time>
      </trkpt>
      <trkpt lat="41.228973" lon="-6.658305">
        <ele>607.254</ele>
        <time>2025-06-28T14:40:24.097703831Z</time>
      </trkpt>
      <trkpt lat="41.228871" lon="-6.658398">
        <ele>611.136</ele>
        <time>2025-06-28T14:41:04.097706716Z</time>
      </trkpt>
      <trkpt lat="41.228791" lon="-6.658410">
        <ele>614.477</ele>
        <time>2025-06-28T14:41:44.097710052Z</time>
      </trkpt>
      <trkpt lat="41.228651" lon="-6.658555">
        <ele>618.739</ele>
        <time>2025-06-28T14:42:24.097712968Z</time>
      </trkpt>
      <trkpt lat="41.228569" lon="-6.658408">
        <ele>624.559</ele>
        <time>2025-06-28T14:43:04.097715843Z</time>
      </trkpt>
      <trkpt lat="41.228545" lon="-6.658212">
        <ele>626.981</ele>
        <time>2025-06-28T14:43:44.097718849Z</time>
      </trkpt>
      <trkpt lat="41.228604" lon="-6.657950">
        <ele>629.861</ele>
        <time>2025-06-28T14:44:24.097721814Z</time>
      </trkpt>
      <trkpt lat="41.228479" lon="-6.657792">
        <ele>633.617</ele>
        <time>2025-06-28T14:45:04.097724780Z</time>
      </trkpt>
      <trkpt lat="41.228343" lon="-6.657691">
        <ele>637.506</ele>
        <time>2025-06-28T14:45:44.097727725Z</time>
      </trkpt>
      <trkpt lat="41.228233" lon="-6.657783">
        <ele>641.880</ele>
        <time>2025-06-28T14:46:24.097730681Z</time>
      </trkpt>
      <trkpt lat="41.228139" lon="-6.657607">
        <ele>645.774</ele>
        <time>2025-06-28T14:47:04.097733556Z</time>
      </trkpt>
      <trkpt lat="41.228072" lon="-6.657384">
        <ele>647.656</ele>
        <time>2025-06-28T14:47:44.097736502Z</time>
      </trkpt>
      <trkpt lat="41.227913" lon="-6.657251">
        <ele>649.517</ele>
        <time>2025-06-28T14:48:24.097739417Z</time>
      </trkpt>
      <trkpt lat="41.227759" lon="-6.657120">
        <ele>651.459</ele>
        <time>2025-06-28T14:49:04.097742303Z</time>
      </trkpt>
      <trkpt lat="41.227594" lon="-6.657003">
        <ele>650.919</ele>
        <time>2025-06-28T14:49:44.097745168Z</time>
      </trkpt>
      <trkpt lat="41.227430" lon="-6.656907">
        <ele>650.926</ele>
        <time>2025-06-28T14:50:24.097748143Z</time>
      </trkpt>
      <trkpt lat="41.227258" lon="-6.656823">
        <ele>651.947</ele>
        <time>2025-06-28T14:51:04.097751079Z</time>
      </trkpt>
      <trkpt lat="41.227077" lon="-6.656693">
        <ele>656.711</ele>
        <time>2025-06-28T14:51:44.097753964Z</time>
      </trkpt>
      <trkpt lat="41.226920" lon="-6.656562">
        <ele>660.606</ele>
        <time>2025-06-28T14:52:24.097756890Z</time>
      </trkpt>
      <trkpt lat="41.226782" lon="-6.656417">
        <ele>663.094</ele>
        <time>2025-06-28T14:53:04.097759765Z</time>
      </trkpt>
      <trkpt lat="41.226732" lon="-6.656192">
        <ele>665.438</ele>
        <time>2025-06-28T14:53:44.097762651Z</time>
      </trkpt>
      <trkpt lat="41.226644" lon="-6.655991">
        <ele>667.390</ele>
        <time>2025-06-28T14:54:24.097765526Z</time>
      </trkpt>
      <trkpt lat="41.226500" lon="-6.655836">
        <ele>668.341</ele>
        <time>2025-06-28T14:55:04.097768431Z</time>
      </trkpt>
      <trkpt lat="41.226386" lon="-6.655658">
        <ele>668.783</ele>
        <time>2025-06-28T14:55:44.097771347Z</time>
      </trkpt>
      <trkpt lat="41.226274" lon="-6.655475">
        <ele>670.763</ele>
        <time>2025-06-28T14:56:24.097774252Z</time>
      </trkpt>
      <trkpt lat="41.226161" lon="-6.655292">
        <ele>672.162</ele>
        <time>2025-06-28T14:57:04.097777188Z</time>
      </trkpt>
      <trkpt lat="41.226070" lon="-6.655082">
        <ele>675.583</ele>
        <time>2025-06-28T14:57:44.097780133Z</time>
      </trkpt>
      <trkpt lat="41.225969" lon="-6.654886">
        <ele>676.411</ele>
        <time>2025-06-28T14:58:24.097783049Z</time>
      </trkpt>
      <trkpt lat="41.225824" lon="-6.654728">
        <ele>676.906</ele>
        <time>2025-06-28T14:59:04.097785914Z</time>
      </trkpt>
      <trkpt lat="41.225695" lon="-6.654551">
        <ele>676.998</ele>
        <time>2025-06-28T14:59:44.097788780Z</time>
      </trkpt>
      <trkpt lat="41.225565" lon="-6.654375">
        <ele>677.482</ele>
        <time>2025-06-28T15:00:24.097791675Z</time>
      </trkpt>
      <trkpt lat="41.225426" lon="-6.654223">
        <ele>678.854</ele>
        <time>2025-06-28T15:01:04.097794540Z</time>
      </trkpt>
      <trkpt lat="41.225296" lon="-6.654042">
        <ele>680.365</ele>
        <time>2025-06-28T15:01:44.097797436Z</time>
      </trkpt>
      <trkpt lat="41.225197" lon="-6.653838">
        <ele>683.697</ele>
        <time>2025-06-28T15:02:24.097800341Z</time>
      </trkpt>
      <trkpt lat="41.225133" lon="-6.653598">
        <ele>686.047</ele>
        <time>2025-06-28T15:03:04.097803247Z</time>
      </trkpt>
      <trkpt lat="41.225071" lon="-6.653370">
        <ele>688.474</ele>
        <time>2025-06-28T15:03:44.097806232Z</time>
      </trkpt>
      <trkpt lat="41.224975" lon="-6.653168">
        <ele>690.856</ele>
        <time>2025-06-28T15:04:24.097809158Z</time>
      </trkpt>
      <trkpt lat="41.224884" lon="-6.652953">
        <ele>691.321</ele>
        <time>2025-06-28T15:05:04.097812033Z</time>
      </trkpt>
      <trkpt lat="41.224805" lon="-6.652723">
        <ele>693.706</ele>
        <time>2025-06-28T15:05:44.097814948Z</time>
      </trkpt>
      <trkpt lat="41.224744" lon="-6.652498">
        <ele>694.219</ele>
        <time>2025-06-28T15:06:24.097817864Z</time>
      </trkpt>
      <trkpt lat="41.224610" lon="-6.652299">
        <ele>696.173</ele>
        <time>2025-06-28T15:07:04.097820789Z</time>
      </trkpt>
      <trkpt lat="41.224509" lon="-6.652103">
        <ele>697.125</ele>
        <time>2025-06-28T15:07:44.097823745Z</time>
      </trkpt>
      <trkpt lat="41.224405" lon="-6.651913">
        <ele>697.626</ele>
        <time>2025-06-28T15:08:24.097826610Z</time>
      </trkpt>
      <trkpt lat="41.224267" lon="-6.651730">
        <ele>698.578</ele>
        <time>2025-06-28T15:09:04.097829496Z</time>
      </trkpt>
      <trkpt lat="41.224146" lon="-6.651552">
        <ele>700.098</ele>
        <time>2025-06-28T15:09:44.097832471Z</time>
      </trkpt>
      <trkpt lat="41.224001" lon="-6.651396">
        <ele>700.551</ele>
        <time>2025-06-28T15:10:24.097835467Z</time>
      </trkpt>
      <trkpt lat="41.223853" lon="-6.651247">
        <ele>701.401</ele>
        <time>2025-06-28T15:11:04.097838382Z</time>
      </trkpt>
      <trkpt lat="41.223705" lon="-6.651088">
        <ele>702.911</ele>
        <time>2025-06-28T15:11:44.097841378Z</time>
      </trkpt>
      <trkpt lat="41.223589" lon="-6.650903">
        <ele>702.906</ele>
        <time>2025-06-28T15:12:24.097844263Z</time>
      </trkpt>
      <trkpt lat="41.223449" lon="-6.650725">
        <ele>703.317</ele>
        <time>2025-06-28T15:13:04.097847129Z</time>
      </trkpt>
      <trkpt lat="41.223340" lon="-6.650531">
        <ele>703.811</ele>
        <time>2025-06-28T15:13:44.097850024Z</time>
      </trkpt>
      <trkpt lat="41.223211" lon="-6.650346">
        <ele>704.863</ele>
        <time>2025-06-28T15:14:24.097858660Z</time>
      </trkpt>
      <trkpt lat="41.223091" lon="-6.650163">
        <ele>705.334</ele>
        <time>2025-06-28T15:15:04.097864151Z</time>
      </trkpt>
      <trkpt lat="41.222952" lon="-6.649986">
        <ele>706.756</ele>
        <time>2025-06-28T15:15:44.097869300Z</time>
      </trkpt>
      <trkpt lat="41.222826" lon="-6.649815">
        <ele>707.296</ele>
        <time>2025-06-28T15:16:24.097872496Z</time>
      </trkpt>
      <trkpt lat="41.222696" lon="-6.649629">
        <ele>707.737</ele>
        <time>2025-06-28T15:17:04.097875482Z</time>
      </trkpt>
      <trkpt lat="41.222579" lon="-6.649447">
        <ele>707.249</ele>
        <time>2025-06-28T15:17:44.097878437Z</time>
      </trkpt>
      <trkpt lat="41.222479" lon="-6.649228">
        <ele>708.613</ele>
        <time>2025-06-28T15:18:24.097881393Z</time>
      </trkpt>
      <trkpt lat="41.222377" lon="-6.649009">
        <ele>708.106</ele>
        <time>2025-06-28T15:19:04.097884288Z</time>
      </trkpt>
      <trkpt lat="41.222274" lon="-6.648809">
        <ele>708.625</ele>
        <time>2025-06-28T15:19:44.097887204Z</time>
      </trkpt>
      <trkpt lat="41.222196" lon="-6.648597">
        <ele>708.139</ele>
        <time>2025-06-28T15:20:24.097890109Z</time>
      </trkpt>
      <trkpt lat="41.222102" lon="-6.648375">
        <ele>708.141</ele>
        <time>2025-06-28T15:21:04.097892984Z</time>
      </trkpt>
      <trkpt lat="41.222013" lon="-6.648170">
        <ele>707.712</ele>
        <time>2025-06-28T15:21:44.097895910Z</time>
      </trkpt>
      <trkpt lat="41.221893" lon="-6.647972">
        <ele>707.744</ele>
        <time>2025-06-28T15:22:24.097898876Z</time>
      </trkpt>
      <trkpt lat="41.221731" lon="-6.647844">
        <ele>707.264</ele>
        <time>2025-06-28T15:23:04.097901821Z</time>
      </trkpt>
      <trkpt lat="41.221584" lon="-6.647731">
        <ele>708.679</ele>
        <time>2025-06-28T15:23:44.097904767Z</time>
      </trkpt>
      <trkpt lat="41.221554" lon="-6.647630">
        <ele>709.105</ele>
        <time>2025-06-28T15:24:24.097907892Z</time>
      </trkpt>
      <trkpt lat="41.221609" lon="-6.647407">
        <ele>707.225</ele>
        <time>2025-06-28T15:25:04.097910788Z</time>
      </trkpt>
      <trkpt lat="41.221509" lon="-6.647202">
        <ele>706.706</ele>
        <time>2025-06-28T15:25:44.097913693Z</time>
      </trkpt>
      <trkpt lat="41.221384" lon="-6.647000">
        <ele>706.219</ele>
        <time>2025-06-28T15:26:24.097916609Z</time>
      </trkpt>
      <trkpt lat="41.221273" lon="-6.646806">
        <ele>705.743</ele>
        <time>2025-06-28T15:27:04.097919554Z</time>
      </trkpt>
      <trkpt lat="41.221165" lon="-6.646604">
        <ele>704.825</ele>
        <time>2025-06-28T15:27:44.097922450Z</time>
      </trkpt>
      <trkpt lat="41.221098" lon="-6.646372">
        <ele>702.416</ele>
        <time>2025-06-28T15:28:24.097925345Z</time>
      </trkpt>
      <trkpt lat="41.221027" lon="-6.646153">
        <ele>702.468</ele>
        <time>2025-06-28T15:29:04.097928240Z</time>
      </trkpt>
      <trkpt lat="41.220946" lon="-6.645934">
        <ele>702.428</ele>
        <time>2025-06-28T15:29:44.097931186Z</time>
      </trkpt>
      <trkpt lat="41.220858" lon="-6.645720">
        <ele>702.477</ele>
        <time>2025-06-28T15:30:24.097934152Z</time>
      </trkpt>
      <trkpt lat="41.220743" lon="-6.645528">
        <ele>702.961</ele>
        <time>2025-06-28T15:31:04.097937097Z</time>
      </trkpt>
      <trkpt lat="41.220575" lon="-6.645418">
        <ele>702.927</ele>
        <time>2025-06-28T15:31:44.097939992Z</time>
      </trkpt>
      <trkpt lat="41.220404" lon="-6.645310">
        <ele>704.306</ele>
        <time>2025-06-28T15:32:24.097943329Z</time>
      </trkpt>
      <trkpt lat="41.220259" lon="-6.645152">
        <ele>705.729</ele>
        <time>2025-06-28T15:33:04.097946244Z</time>
      </trkpt>
      <trkpt lat="41.220121" lon="-6.644979">
        <ele>706.713</ele>
        <time>2025-06-28T15:33:44.097949130Z</time>
      </trkpt>
      <trkpt lat="41.219986" lon="-6.644802">
        <ele>707.245</ele>
        <time>2025-06-28T15:34:24.097951995Z</time>
      </trkpt>
      <trkpt lat="41.219861" lon="-6.644631">
        <ele>707.756</ele>
        <time>2025-06-28T15:35:04.097954870Z</time>
      </trkpt>
      <trkpt lat="41.219733" lon="-6.644464">
        <ele>708.168</ele>
        <time>2025-06-28T15:35:44.097957816Z</time>
      </trkpt>
      <trkpt lat="41.219605" lon="-6.644281">
        <ele>708.618</ele>
        <time>2025-06-28T15:36:24.097960771Z</time>
      </trkpt>
      <trkpt lat="41.219500" lon="-6.644075">
        <ele>710.187</ele>
        <time>2025-06-28T15:37:04.097965019Z</time>
      </trkpt>
      <trkpt lat="41.219391" lon="-6.643878">
        <ele>711.542</ele>
        <time>2025-06-28T15:37:44.097970920Z</time>
      </trkpt>
      <trkpt lat="41.219293" lon="-6.643677">
        <ele>712.526</ele>
        <time>2025-06-28T15:38:24.097973866Z</time>
      </trkpt>
      <trkpt lat="41.219189" lon="-6.643473">
        <ele>713.906</ele>
        <time>2025-06-28T15:39:04.097976771Z</time>
      </trkpt>
      <trkpt lat="41.219081" lon="-6.643276">
        <ele>714.980</ele>
        <time>2025-06-28T15:39:44.097979687Z</time>
      </trkpt>
      <trkpt lat="41.218994" lon="-6.643068">
        <ele>713.964</ele>
        <time>2025-06-28T15:40:24.097982572Z</time>
      </trkpt>
      <trkpt lat="41.218894" lon="-6.642867">
        <ele>713.016</ele>
        <time>2025-06-28T15:41:04.097985498Z</time>
      </trkpt>
      <trkpt lat="41.218793" lon="-6.642667">
        <ele>711.527</ele>
        <time>2025-06-28T15:41:44.097988383Z</time>
      </trkpt>
      <trkpt lat="41.218693" lon="-6.642458">
        <ele>711.599</ele>
        <time>2025-06-28T15:42:24.097991228Z</time>
      </trkpt>
      <trkpt lat="41.218601" lon="-6.642245">
        <ele>710.199</ele>
        <time>2025-06-28T15:43:04.097994124Z</time>
      </trkpt>
      <trkpt lat="41.218495" lon="-6.642045">
        <ele>708.663</ele>
        <time>2025-06-28T15:43:44.097997099Z</time>
      </trkpt>
      <trkpt lat="41.218386" lon="-6.641837">
        <ele>708.144</ele>
        <time>2025-06-28T15:44:24.098000045Z</time>
      </trkpt>
      <trkpt lat="41.218317" lon="-6.641609">
        <ele>707.718</ele>
        <time>2025-06-28T15:45:04.098002960Z</time>
      </trkpt>
      <trkpt lat="41.218282" lon="-6.641374">
        <ele>707.206</ele>
        <time>2025-06-28T15:45:44.098005896Z</time>
      </trkpt>
      <trkpt lat="41.218185" lon="-6.641160">
        <ele>706.758</ele>
        <time>2025-06-28T15:46:24.098008791Z</time>
      </trkpt>
      <trkpt lat="41.218065" lon="-6.640973">
        <ele>705.712</ele>
        <time>2025-06-28T15:47:04.098011677Z</time>
      </trkpt>
      <trkpt lat="41.217926" lon="-6.640795">
        <ele>705.394</ele>
        <time>2025-06-28T15:47:44.098014562Z</time>
      </trkpt>
      <trkpt lat="41.217767" lon="-6.640678">
        <ele>704.865</ele>
        <time>2025-06-28T15:48:24.098017437Z</time>
      </trkpt>
      <trkpt lat="41.217595" lon="-6.640590">
        <ele>704.397</ele>
        <time>2025-06-28T15:49:04.098020383Z</time>
      </trkpt>
      <trkpt lat="41.217422" lon="-6.640494">
        <ele>703.367</ele>
        <time>2025-06-28T15:49:44.098023318Z</time>
      </trkpt>
      <trkpt lat="41.217253" lon="-6.640402">
        <ele>702.484</ele>
        <time>2025-06-28T15:50:24.098026264Z</time>
      </trkpt>
      <trkpt lat="41.217074" lon="-6.640388">
        <ele>701.407</ele>
        <time>2025-06-28T15:51:04.098029189Z</time>
      </trkpt>
      <trkpt lat="41.216887" lon="-6.640411">
        <ele>701.417</ele>
        <time>2025-06-28T15:51:44.098032075Z</time>
      </trkpt>
      <trkpt lat="41.216699" lon="-6.640436">
        <ele>701.406</ele>
        <time>2025-06-28T15:52:24.098034960Z</time>
      </trkpt>
      <trkpt lat="41.216521" lon="-6.640470">
        <ele>701.460</ele>
        <time>2025-06-28T15:53:04.098037856Z</time>
      </trkpt>
      <trkpt lat="41.216339" lon="-6.640511">
        <ele>700.944</ele>
        <time>2025-06-28T15:53:44.098047674Z</time>
      </trkpt>
      <trkpt lat="41.216196" lon="-6.640380">
        <ele>700.986</ele>
        <time>2025-06-28T15:54:24.098050599Z</time>
      </trkpt>
      <trkpt lat="41.216130" lon="-6.640143">
        <ele>699.087</ele>
        <time>2025-06-28T15:55:04.098053555Z</time>
      </trkpt>
      <trkpt lat="41.216070" lon="-6.639912">
        <ele>698.579</ele>
        <time>2025-06-28T15:55:44.098056450Z</time>
      </trkpt>
      <trkpt lat="41.216004" lon="-6.639679">
        <ele>697.679</ele>
        <time>2025-06-28T15:56:24.098059326Z</time>
      </trkpt>
      <trkpt lat="41.215943" lon="-6.639449">
        <ele>698.113</ele>
        <time>2025-06-28T15:57:04.098062291Z</time>
      </trkpt>
      <trkpt lat="41.215882" lon="-6.639216">
        <ele>696.143</ele>
        <time>2025-06-28T15:57:44.098065207Z</time>
      </trkpt>
      <trkpt lat="41.215808" lon="-6.638995">
        <ele>696.107</ele>
        <time>2025-06-28T15:58:24.098068072Z</time>
      </trkpt>
      <trkpt lat="41.215732" lon="-6.638774">
        <ele>695.206</ele>
        <time>2025-06-28T15:59:04.098070967Z</time>
      </trkpt>
      <trkpt lat="41.215663" lon="-6.638548">
        <ele>694.213</ele>
        <time>2025-06-28T15:59:44.098073813Z</time>
      </trkpt>
      <trkpt lat="41.215574" lon="-6.638330">
        <ele>693.747</ele>
        <time>2025-06-28T16:00:24.098076658Z</time>
      </trkpt>
      <trkpt lat="41.215424" lon="-6.638175">
        <ele>693.239</ele>
        <time>2025-06-28T16:01:04.098079684Z</time>
      </trkpt>
      <trkpt lat="41.215266" lon="-6.638046">
        <ele>693.280</ele>
        <time>2025-06-28T16:01:44.098082579Z</time>
      </trkpt>
      <trkpt lat="41.215089" lon="-6.637980">
        <ele>692.812</ele>
        <time>2025-06-28T16:02:24.098085475Z</time>
      </trkpt>
      <trkpt lat="41.214965" lon="-6.637809">
        <ele>692.872</ele>
        <time>2025-06-28T16:03:04.098088370Z</time>
      </trkpt>
      <trkpt lat="41.214887" lon="-6.637581">
        <ele>692.344</ele>
        <time>2025-06-28T16:03:44.098091336Z</time>
      </trkpt>
      <trkpt lat="41.214837" lon="-6.637347">
        <ele>692.305</ele>
        <time>2025-06-28T16:04:24.098094251Z</time>
      </trkpt>
      <trkpt lat="41.214813" lon="-6.637111">
        <ele>691.815</ele>
        <time>2025-06-28T16:05:04.098097146Z</time>
      </trkpt>
      <trkpt lat="41.214921" lon="-6.636921">
        <ele>692.306</ele>
        <time>2025-06-28T16:05:44.098100012Z</time>
      </trkpt>
      <trkpt lat="41.215011" lon="-6.636717">
        <ele>692.876</ele>
        <time>2025-06-28T16:06:24.098102917Z</time>
      </trkpt>
      <trkpt lat="41.214955" lon="-6.636485">
        <ele>692.880</ele>
        <time>2025-06-28T16:07:04.098105803Z</time>
      </trkpt>
      <trkpt lat="41.214838" lon="-6.636297">
        <ele>693.762</ele>
        <time>2025-06-28T16:07:44.098108688Z</time>
      </trkpt>
      <trkpt lat="41.214718" lon="-6.636093">
        <ele>695.273</ele>
        <time>2025-06-28T16:08:24.098111583Z</time>
      </trkpt>
      <trkpt lat="41.214595" lon="-6.635907">
        <ele>697.195</ele>
        <time>2025-06-28T16:09:04.098114499Z</time>
      </trkpt>
      <trkpt lat="41.214482" lon="-6.635713">
        <ele>697.665</ele>
        <time>2025-06-28T16:09:44.098117384Z</time>
      </trkpt>
      <trkpt lat="41.214376" lon="-6.635518">
        <ele>697.612</ele>
        <time>2025-06-28T16:10:24.098124718Z</time>
      </trkpt>
      <trkpt lat="41.214331" lon="-6.635285">
        <ele>698.532</ele>
        <time>2025-06-28T16:11:04.098127603Z</time>
      </trkpt>
      <trkpt lat="41.214271" lon="-6.635049">
        <ele>699.005</ele>
        <time>2025-06-28T16:11:44.098130499Z</time>
      </trkpt>
      <trkpt lat="41.214222" lon="-6.634801">
        <ele>700.506</ele>
        <time>2025-06-28T16:12:24.098133374Z</time>
      </trkpt>
      <trkpt lat="41.214172" lon="-6.634562">
        <ele>700.943</ele>
        <time>2025-06-28T16:13:04.098136250Z</time>
      </trkpt>
      <trkpt lat="41.214106" lon="-6.634324">
        <ele>701.937</ele>
        <time>2025-06-28T16:13:44.098139155Z</time>
      </trkpt>
      <trkpt lat="41.214037" lon="-6.634096">
        <ele>702.449</ele>
        <time>2025-06-28T16:14:24.098141990Z</time>
      </trkpt>
      <trkpt lat="41.214005" lon="-6.633863">
        <ele>702.910</ele>
        <time>2025-06-28T16:15:04.098144876Z</time>
      </trkpt>
      <trkpt lat="41.214070" lon="-6.633626">
        <ele>702.942</ele>
        <time>2025-06-28T16:15:44.098147791Z</time>
      </trkpt>
      <trkpt lat="41.214134" lon="-6.633384">
        <ele>701.972</ele>
        <time>2025-06-28T16:16:24.098150667Z</time>
      </trkpt>
      <trkpt lat="41.214190" lon="-6.633136">
        <ele>701.433</ele>
        <time>2025-06-28T16:17:04.098153582Z</time>
      </trkpt>
      <trkpt lat="41.214234" lon="-6.632885">
        <ele>701.423</ele>
        <time>2025-06-28T16:17:44.098156498Z</time>
      </trkpt>
      <trkpt lat="41.214276" lon="-6.632636">
        <ele>700.915</ele>
        <time>2025-06-28T16:18:24.098159383Z</time>
      </trkpt>
      <trkpt lat="41.214348" lon="-6.632407">
        <ele>702.406</ele>
        <time>2025-06-28T16:19:04.098162298Z</time>
      </trkpt>
      <trkpt lat="41.214450" lon="-6.632190">
        <ele>703.385</ele>
        <time>2025-06-28T16:19:44.098165184Z</time>
      </trkpt>
      <trkpt lat="41.214555" lon="-6.631991">
        <ele>703.879</ele>
        <time>2025-06-28T16:20:24.098168099Z</time>
      </trkpt>
      <trkpt lat="41.214651" lon="-6.631771">
        <ele>704.361</ele>
        <time>2025-06-28T16:21:04.098170945Z</time>
      </trkpt>
      <trkpt lat="41.214729" lon="-6.631538">
        <ele>703.862</ele>
        <time>2025-06-28T16:21:44.098173860Z</time>
      </trkpt>
      <trkpt lat="41.214773" lon="-6.631292">
        <ele>704.834</ele>
        <time>2025-06-28T16:22:24.098176745Z</time>
      </trkpt>
      <trkpt lat="41.214813" lon="-6.631055">
        <ele>706.244</ele>
        <time>2025-06-28T16:23:04.098182717Z</time>
      </trkpt>
      <trkpt lat="41.214838" lon="-6.630807">
        <ele>706.713</ele>
        <time>2025-06-28T16:23:44.098186023Z</time>
      </trkpt>
      <trkpt lat="41.214841" lon="-6.630553">
        <ele>706.243</ele>
        <time>2025-06-28T16:24:24.098188898Z</time>
      </trkpt>
      <trkpt lat="41.214816" lon="-6.630294">
        <ele>706.707</ele>
        <time>2025-06-28T16:25:04.098191794Z</time>
      </trkpt>
      <trkpt lat="41.214782" lon="-6.630039">
        <ele>707.206</ele>
        <time>2025-06-28T16:25:44.098194679Z</time>
      </trkpt>
      <trkpt lat="41.214755" lon="-6.629784">
        <ele>706.263</ele>
        <time>2025-06-28T16:26:24.098197534Z</time>
      </trkpt>
      <trkpt lat="41.214729" lon="-6.629532">
        <ele>706.717</ele>
        <time>2025-06-28T16:27:04.098200400Z</time>
      </trkpt>
      <trkpt lat="41.214694" lon="-6.629293">
        <ele>707.739</ele>
        <time>2025-06-28T16:27:44.098203255Z</time>
      </trkpt>
      <trkpt lat="41.214657" lon="-6.629041">
        <ele>709.170</ele>
        <time>2025-06-28T16:28:24.098206110Z</time>
      </trkpt>
      <trkpt lat="41.214610" lon="-6.628794">
        <ele>710.132</ele>
        <time>2025-06-28T16:29:04.098208986Z</time>
      </trkpt>
      <trkpt lat="41.214574" lon="-6.628547">
        <ele>711.572</ele>
        <time>2025-06-28T16:29:44.098212162Z</time>
      </trkpt>
      <trkpt lat="41.214586" lon="-6.628301">
        <ele>711.572</ele>
        <time>2025-06-28T16:30:24.098215097Z</time>
      </trkpt>
      <trkpt lat="41.214619" lon="-6.628060">
        <ele>711.513</ele>
        <time>2025-06-28T16:31:04.098218013Z</time>
      </trkpt>
      <trkpt lat="41.214655" lon="-6.627831">
        <ele>710.614</ele>
        <time>2025-06-28T16:31:44.098220908Z</time>
      </trkpt>
      <trkpt lat="41.214704" lon="-6.627595">
        <ele>710.606</ele>
        <time>2025-06-28T16:32:24.098230506Z</time>
      </trkpt>
      <trkpt lat="41.214747" lon="-6.627374">
        <ele>711.089</ele>
        <time>2025-06-28T16:33:04.098235676Z</time>
      </trkpt>
      <trkpt lat="41.214791" lon="-6.627129">
        <ele>710.683</ele>
        <time>2025-06-28T16:33:44.098240655Z</time>
      </trkpt>
      <trkpt lat="41.214832" lon="-6.626894">
        <ele>710.185</ele>
        <time>2025-06-28T16:34:24.098244893Z</time>
      </trkpt>
      <trkpt lat="41.214886" lon="-6.626658">
        <ele>709.686</ele>
        <time>2025-06-28T16:35:04.098247788Z</time>
      </trkpt>
      <trkpt lat="41.214948" lon="-6.626421">
        <ele>706.768</ele>
        <time>2025-06-28T16:35:44.098250664Z</time>
      </trkpt>
      <trkpt lat="41.215003" lon="-6.626179">
        <ele>705.368</ele>
        <time>2025-06-28T16:36:24.098253559Z</time>
      </trkpt>
      <trkpt lat="41.215063" lon="-6.625953">
        <ele>703.887</ele>
        <time>2025-06-28T16:37:04.098256465Z</time>
      </trkpt>
      <trkpt lat="41.215125" lon="-6.625716">
        <ele>703.842</ele>
        <time>2025-06-28T16:37:44.098259340Z</time>
      </trkpt>
      <trkpt lat="41.215180" lon="-6.625493">
        <ele>702.926</ele>
        <time>2025-06-28T16:38:24.098262426Z</time>
      </trkpt>
      <trkpt lat="41.215245" lon="-6.625270">
        <ele>701.906</ele>
        <time>2025-06-28T16:39:04.098265291Z</time>
      </trkpt>
      <trkpt lat="41.215314" lon="-6.625046">
        <ele>700.550</ele>
        <time>2025-06-28T16:39:44.098268217Z</time>
      </trkpt>
      <trkpt lat="41.215373" lon="-6.624806">
        <ele>699.084</ele>
        <time>2025-06-28T16:40:24.098271062Z</time>
      </trkpt>
      <trkpt lat="41.215412" lon="-6.624570">
        <ele>698.156</ele>
        <time>2025-06-28T16:41:04.098273977Z</time>
      </trkpt>
      <trkpt lat="41.215433" lon="-6.624325">
        <ele>698.517</ele>
        <time>2025-06-28T16:41:44.098276883Z</time>
      </trkpt>
      <trkpt lat="41.215467" lon="-6.624086">
        <ele>696.649</ele>
        <time>2025-06-28T16:42:24.098279858Z</time>
      </trkpt>
      <trkpt lat="41.215428" lon="-6.623860">
        <ele>696.179</ele>
        <time>2025-06-28T16:43:04.098282724Z</time>
      </trkpt>
      <trkpt lat="41.215410" lon="-6.623623">
        <ele>695.754</ele>
        <time>2025-06-28T16:43:44.098285709Z</time>
      </trkpt>
      <trkpt lat="41.215417" lon="-6.623387">
        <ele>696.156</ele>
        <time>2025-06-28T16:44:24.098288585Z</time>
      </trkpt>
      <trkpt lat="41.215517" lon="-6.623179">
        <ele>695.711</ele>
        <time>2025-06-28T16:45:04.098291450Z</time>
      </trkpt>
      <trkpt lat="41.215616" lon="-6.622967">
        <ele>696.106</ele>
        <time>2025-06-28T16:45:44.098294335Z</time>
      </trkpt>
      <trkpt lat="41.215707" lon="-6.622757">
        <ele>696.187</ele>
        <time>2025-06-28T16:46:24.098297181Z</time>
      </trkpt>
      <trkpt lat="41.215786" lon="-6.622532">
        <ele>695.781</ele>
        <time>2025-06-28T16:47:04.098300056Z</time>
      </trkpt>
      <trkpt lat="41.215850" lon="-6.622303">
        <ele>694.293</ele>
        <time>2025-06-28T16:47:44.098302962Z</time>
      </trkpt>
      <trkpt lat="41.215903" lon="-6.622070">
        <ele>694.264</ele>
        <time>2025-06-28T16:48:24.098305837Z</time>
      </trkpt>
      <trkpt lat="41.215967" lon="-6.621861">
        <ele>692.316</ele>
        <time>2025-06-28T16:49:04.098308772Z</time>
      </trkpt>
      <trkpt lat="41.216032" lon="-6.621617">
        <ele>691.896</ele>
        <time>2025-06-28T16:49:44.098311678Z</time>
      </trkpt>
      <trkpt lat="41.216084" lon="-6.621369">
        <ele>691.377</ele>
        <time>2025-06-28T16:50:24.098314593Z</time>
      </trkpt>
      <trkpt lat="41.216169" lon="-6.621153">
        <ele>691.361</ele>
        <time>2025-06-28T16:51:04.098317499Z</time>
      </trkpt>
      <trkpt lat="41.216287" lon="-6.620963">
        <ele>690.827</ele>
        <time>2025-06-28T16:51:44.098320414Z</time>
      </trkpt>
      <trkpt lat="41.216417" lon="-6.620791">
        <ele>689.406</ele>
        <time>2025-06-28T16:52:24.098323290Z</time>
      </trkpt>
      <trkpt lat="41.216543" lon="-6.620621">
        <ele>688.969</ele>
        <time>2025-06-28T16:53:04.098326155Z</time>
      </trkpt>
      <trkpt lat="41.216682" lon="-6.620471">
        <ele>688.043</ele>
        <time>2025-06-28T16:53:44.098328990Z</time>
      </trkpt>
      <trkpt lat="41.216830" lon="-6.620337">
        <ele>688.085</ele>
        <time>2025-06-28T16:54:24.098331846Z</time>
      </trkpt>
      <trkpt lat="41.217023" lon="-6.620275">
        <ele>687.546</ele>
        <time>2025-06-28T16:55:04.098334681Z</time>
      </trkpt>
      <trkpt lat="41.217199" lon="-6.620215">
        <ele>687.588</ele>
        <time>2025-06-28T16:55:44.098337546Z</time>
      </trkpt>
      <trkpt lat="41.217355" lon="-6.620078">
        <ele>688.998</ele>
        <time>2025-06-28T16:56:24.098340402Z</time>
      </trkpt>
      <trkpt lat="41.217505" lon="-6.619983">
        <ele>689.491</ele>
        <time>2025-06-28T16:57:04.098343317Z</time>
      </trkpt>
      <trkpt lat="41.217684" lon="-6.619949">
        <ele>689.981</ele>
        <time>2025-06-28T16:57:44.098346222Z</time>
      </trkpt>
      <trkpt lat="41.217873" lon="-6.619921">
        <ele>689.919</ele>
        <time>2025-06-28T16:58:24.098349118Z</time>
      </trkpt>
      <trkpt lat="41.218053" lon="-6.619885">
        <ele>687.506</ele>
        <time>2025-06-28T16:59:04.098352003Z</time>
      </trkpt>
      <trkpt lat="41.218428" lon="-6.619838">
        <ele>684.651</ele>
        <time>2025-06-28T16:59:44.098354849Z</time>
      </trkpt>
      <trkpt lat="41.218557" lon="-6.619685">
        <ele>684.195</ele>
        <time>2025-06-28T17:00:24.098357724Z</time>
      </trkpt>
      <trkpt lat="41.218674" lon="-6.619508">
        <ele>683.217</ele>
        <time>2025-06-28T17:01:04.098360569Z</time>
      </trkpt>
      <trkpt lat="41.218847" lon="-6.619474">
        <ele>683.288</ele>
        <time>2025-06-28T17:01:44.098363475Z</time>
      </trkpt>
      <trkpt lat="41.219018" lon="-6.619552">
        <ele>682.220</ele>
        <time>2025-06-28T17:02:24.098366340Z</time>
      </trkpt>
      <trkpt lat="41.219021" lon="-6.619552">
        <ele>624.060</ele>
        <time>2025-06-28T17:03:04.098369266Z</time>
      </trkpt>
      <trkpt lat="41.219060" lon="-6.619770">
        <ele>624.099</ele>
        <time>2025-06-28T17:03:44.098372221Z</time>
      </trkpt>
      <trkpt lat="41.218920" lon="-6.619921">
        <ele>623.607</ele>
        <time>2025-06-28T17:04:24.098375147Z</time>
      </trkpt>
      <trkpt lat="41.218859" lon="-6.620155">
        <ele>622.627</ele>
        <time>2025-06-28T17:05:04.098378022Z</time>
      </trkpt>
      <trkpt lat="41.219270" lon="-6.620647">
        <ele>619.206</ele>
        <time>2025-06-28T17:05:44.098380907Z</time>
      </trkpt>
      <trkpt lat="41.219425" lon="-6.620763">
        <ele>616.381</ele>
        <time>2025-06-28T17:06:24.098383773Z</time>
      </trkpt>
      <trkpt lat="41.219552" lon="-6.620954">
        <ele>614.485</ele>
        <time>2025-06-28T17:07:04.098386618Z</time>
      </trkpt>
      <trkpt lat="41.219637" lon="-6.621195">
        <ele>611.547</ele>
        <time>2025-06-28T17:07:44.098389524Z</time>
      </trkpt>
      <trkpt lat="41.219609" lon="-6.621441">
        <ele>609.168</ele>
        <time>2025-06-28T17:08:24.098392369Z</time>
      </trkpt>
      <trkpt lat="41.219591" lon="-6.621688">
        <ele>609.680</ele>
        <time>2025-06-28T17:09:04.098395214Z</time>
      </trkpt>
      <trkpt lat="41.219480" lon="-6.621891">
        <ele>608.750</ele>
        <time>2025-06-28T17:09:44.098398069Z</time>
      </trkpt>
      <trkpt lat="41.219480" lon="-6.622004">
        <ele>608.727</ele>
        <time>2025-06-28T17:10:24.098400995Z</time>
      </trkpt>
      <trkpt lat="41.219490" lon="-6.622100">
        <ele>609.168</ele>
        <time>2025-06-28T17:11:04.098403920Z</time>
      </trkpt>
      <trkpt lat="41.219563" lon="-6.622254">
        <ele>608.714</ele>
        <time>2025-06-28T17:11:44.098413709Z</time>
      </trkpt>
      <trkpt lat="41.219693" lon="-6.622411">
        <ele>607.706</ele>
        <time>2025-06-28T17:12:24.098416674Z</time>
      </trkpt>
      <trkpt lat="41.219795" lon="-6.622611">
        <ele>607.714</ele>
        <time>2025-06-28T17:13:04.098419560Z</time>
      </trkpt>
      <trkpt lat="41.219893" lon="-6.622804">
        <ele>609.668</ele>
        <time>2025-06-28T17:13:44.098423647Z</time>
      </trkpt>
      <trkpt lat="41.220000" lon="-6.622994">
        <ele>609.130</ele>
        <time>2025-06-28T17:14:24.098426663Z</time>
      </trkpt>
      <trkpt lat="41.220131" lon="-6.623160">
        <ele>609.171</ele>
        <time>2025-06-28T17:15:04.098429548Z</time>
      </trkpt>
      <trkpt lat="41.220203" lon="-6.623269">
        <ele>610.173</ele>
        <time>2025-06-28T17:15:44.098432414Z</time>
      </trkpt>
      <trkpt lat="41.220316" lon="-6.623458">
        <ele>611.583</ele>
        <time>2025-06-28T17:16:24.098435269Z</time>
      </trkpt>
      <trkpt lat="41.220438" lon="-6.623644">
        <ele>613.592</ele>
        <time>2025-06-28T17:17:04.098438225Z</time>
      </trkpt>
      <trkpt lat="41.220575" lon="-6.623809">
        <ele>614.973</ele>
        <time>2025-06-28T17:17:44.098441140Z</time>
      </trkpt>
      <trkpt lat="41.220730" lon="-6.623950">
        <ele>615.420</ele>
        <time>2025-06-28T17:18:24.098444086Z</time>
      </trkpt>
      <trkpt lat="41.220896" lon="-6.624053">
        <ele>614.906</ele>
        <time>2025-06-28T17:19:04.098446951Z</time>
      </trkpt>
      <trkpt lat="41.221067" lon="-6.624146">
        <ele>615.451</ele>
        <time>2025-06-28T17:19:44.098449876Z</time>
      </trkpt>
      <trkpt lat="41.221243" lon="-6.624226">
        <ele>615.475</ele>
        <time>2025-06-28T17:20:24.098452762Z</time>
      </trkpt>
      <trkpt lat="41.221414" lon="-6.624325">
        <ele>614.937</ele>
        <time>2025-06-28T17:21:04.098455577Z</time>
      </trkpt>
      <trkpt lat="41.221578" lon="-6.624458">
        <ele>616.338</ele>
        <time>2025-06-28T17:21:44.098458462Z</time>
      </trkpt>
      <trkpt lat="41.221733" lon="-6.624599">
        <ele>615.920</ele>
        <time>2025-06-28T17:22:24.098461418Z</time>
      </trkpt>
      <trkpt lat="41.221900" lon="-6.624721">
        <ele>614.440</ele>
        <time>2025-06-28T17:23:04.098464323Z</time>
      </trkpt>
      <trkpt lat="41.222076" lon="-6.624805">
        <ele>613.589</ele>
        <time>2025-06-28T17:23:44.098467289Z</time>
      </trkpt>
      <trkpt lat="41.222217" lon="-6.624993">
        <ele>614.406</ele>
        <time>2025-06-28T17:24:24.098470184Z</time>
      </trkpt>
      <trkpt lat="41.222263" lon="-6.625237">
        <ele>613.526</ele>
        <time>2025-06-28T17:25:04.098473090Z</time>
      </trkpt>
      <trkpt lat="41.222308" lon="-6.625486">
        <ele>613.006</ele>
        <time>2025-06-28T17:25:44.098476025Z</time>
      </trkpt>
      <trkpt lat="41.222405" lon="-6.625693">
        <ele>612.550</ele>
        <time>2025-06-28T17:26:24.098478901Z</time>
      </trkpt>
      <trkpt lat="41.222541" lon="-6.625864">
        <ele>611.194</ele>
        <time>2025-06-28T17:27:04.098481756Z</time>
      </trkpt>
      <trkpt lat="41.222681" lon="-6.626015">
        <ele>610.146</ele>
        <time>2025-06-28T17:27:44.098484601Z</time>
      </trkpt>
      <trkpt lat="41.222832" lon="-6.626155">
        <ele>609.197</ele>
        <time>2025-06-28T17:28:24.098487447Z</time>
      </trkpt>
      <trkpt lat="41.222971" lon="-6.626271">
        <ele>608.269</ele>
        <time>2025-06-28T17:29:04.098490322Z</time>
      </trkpt>
      <trkpt lat="41.223133" lon="-6.626368">
        <ele>608.779</ele>
        <time>2025-06-28T17:29:44.098493278Z</time>
      </trkpt>
      <trkpt lat="41.223299" lon="-6.626482">
        <ele>606.772</ele>
        <time>2025-06-28T17:30:24.098496213Z</time>
      </trkpt>
      <trkpt lat="41.223478" lon="-6.626554">
        <ele>605.313</ele>
        <time>2025-06-28T17:31:04.098499149Z</time>
      </trkpt>
      <trkpt lat="41.223658" lon="-6.626609">
        <ele>604.814</ele>
        <time>2025-06-28T17:31:44.098502064Z</time>
      </trkpt>
      <trkpt lat="41.223823" lon="-6.626736">
        <ele>605.306</ele>
        <time>2025-06-28T17:32:24.098504929Z</time>
      </trkpt>
      <trkpt lat="41.223957" lon="-6.626908">
        <ele>604.829</ele>
        <time>2025-06-28T17:33:04.098507895Z</time>
      </trkpt>
      <trkpt lat="41.224085" lon="-6.627097">
        <ele>606.243</ele>
        <time>2025-06-28T17:33:44.098510830Z</time>
      </trkpt>
      <trkpt lat="41.224217" lon="-6.627274">
        <ele>607.245</ele>
        <time>2025-06-28T17:34:24.098513696Z</time>
      </trkpt>
      <trkpt lat="41.224362" lon="-6.627429">
        <ele>609.166</ele>
        <time>2025-06-28T17:35:04.098516521Z</time>
      </trkpt>
      <trkpt lat="41.224518" lon="-6.627557">
        <ele>610.698</ele>
        <time>2025-06-28T17:35:44.098519356Z</time>
      </trkpt>
      <trkpt lat="41.224695" lon="-6.627648">
        <ele>609.618</ele>
        <time>2025-06-28T17:36:24.098522242Z</time>
      </trkpt>
      <trkpt lat="41.224869" lon="-6.627734">
        <ele>608.787</ele>
        <time>2025-06-28T17:37:04.098525157Z</time>
      </trkpt>
      <trkpt lat="41.225016" lon="-6.627896">
        <ele>609.142</ele>
        <time>2025-06-28T17:37:44.098528063Z</time>
      </trkpt>
      <trkpt lat="41.225127" lon="-6.628078">
        <ele>607.726</ele>
        <time>2025-06-28T17:38:24.098530948Z</time>
      </trkpt>
      <trkpt lat="41.225283" lon="-6.628218">
        <ele>606.706</ele>
        <time>2025-06-28T17:39:04.098533844Z</time>
      </trkpt>
      <trkpt lat="41.225454" lon="-6.628321">
        <ele>606.270</ele>
        <time>2025-06-28T17:39:44.098536719Z</time>
      </trkpt>
      <trkpt lat="41.225621" lon="-6.628438">
        <ele>605.864</ele>
        <time>2025-06-28T17:40:24.098539554Z</time>
      </trkpt>
      <trkpt lat="41.225789" lon="-6.628541">
        <ele>605.886</ele>
        <time>2025-06-28T17:41:04.098542410Z</time>
      </trkpt>
      <trkpt lat="41.225950" lon="-6.628664">
        <ele>606.227</ele>
        <time>2025-06-28T17:41:44.098545305Z</time>
      </trkpt>
      <trkpt lat="41.226096" lon="-6.628811">
        <ele>604.889</ele>
        <time>2025-06-28T17:42:24.098548170Z</time>
      </trkpt>
      <trkpt lat="41.226199" lon="-6.629015">
        <ele>604.339</ele>
        <time>2025-06-28T17:43:04.098551066Z</time>
      </trkpt>
      <trkpt lat="41.226258" lon="-6.629247">
        <ele>602.948</ele>
        <time>2025-06-28T17:43:44.098554001Z</time>
      </trkpt>
      <trkpt lat="41.226352" lon="-6.629458">
        <ele>602.461</ele>
        <time>2025-06-28T17:44:24.098556897Z</time>
      </trkpt>
      <trkpt lat="41.226520" lon="-6.629577">
        <ele>600.017</ele>
        <time>2025-06-28T17:45:04.098559822Z</time>
      </trkpt>
      <trkpt lat="41.226672" lon="-6.629698">
        <ele>599.006</ele>
        <time>2025-06-28T17:45:44.098562687Z</time>
      </trkpt>
      <trkpt lat="41.226794" lon="-6.629874">
        <ele>597.656</ele>
        <time>2025-06-28T17:46:24.098565583Z</time>
      </trkpt>
      <trkpt lat="41.226881" lon="-6.630088">
        <ele>597.610</ele>
        <time>2025-06-28T17:47:04.098568448Z</time>
      </trkpt>
      <trkpt lat="41.226946" lon="-6.630310">
        <ele>596.232</ele>
        <time>2025-06-28T17:47:44.098571304Z</time>
      </trkpt>
      <trkpt lat="41.227009" lon="-6.630564">
        <ele>597.113</ele>
        <time>2025-06-28T17:48:24.098574149Z</time>
      </trkpt>
      <trkpt lat="41.227067" lon="-6.630803">
        <ele>596.665</ele>
        <time>2025-06-28T17:49:04.098576974Z</time>
      </trkpt>
      <trkpt lat="41.227145" lon="-6.631044">
        <ele>595.235</ele>
        <time>2025-06-28T17:49:44.098579820Z</time>
      </trkpt>
      <trkpt lat="41.227218" lon="-6.631273">
        <ele>593.867</ele>
        <time>2025-06-28T17:50:24.098588606Z</time>
      </trkpt>
      <trkpt lat="41.227284" lon="-6.631505">
        <ele>593.381</ele>
        <time>2025-06-28T17:51:04.098593716Z</time>
      </trkpt>
      <trkpt lat="41.227350" lon="-6.631743">
        <ele>592.319</ele>
        <time>2025-06-28T17:51:44.098598915Z</time>
      </trkpt>
      <trkpt lat="41.227462" lon="-6.631942">
        <ele>590.406</ele>
        <time>2025-06-28T17:52:24.098601961Z</time>
      </trkpt>
      <trkpt lat="41.227573" lon="-6.632141">
        <ele>588.558</ele>
        <time>2025-06-28T17:53:04.098604957Z</time>
      </trkpt>
      <trkpt lat="41.227675" lon="-6.632328">
        <ele>587.522</ele>
        <time>2025-06-28T17:53:44.098607822Z</time>
      </trkpt>
      <trkpt lat="41.227819" lon="-6.632454">
        <ele>587.514</ele>
        <time>2025-06-28T17:54:24.098610717Z</time>
      </trkpt>
      <trkpt lat="41.227949" lon="-6.632278">
        <ele>587.045</ele>
        <time>2025-06-28T17:55:04.098613573Z</time>
      </trkpt>
      <trkpt lat="41.228071" lon="-6.632078">
        <ele>587.587</ele>
        <time>2025-06-28T17:55:44.098616468Z</time>
      </trkpt>
      <trkpt lat="41.228207" lon="-6.631928">
        <ele>587.537</ele>
        <time>2025-06-28T17:56:24.098619374Z</time>
      </trkpt>
      <trkpt lat="41.228391" lon="-6.631865">
        <ele>587.527</ele>
        <time>2025-06-28T17:57:04.098622339Z</time>
      </trkpt>
      <trkpt lat="41.228559" lon="-6.631825">
        <ele>588.568</ele>
        <time>2025-06-28T17:57:44.098625275Z</time>
      </trkpt>
      <trkpt lat="41.228708" lon="-6.631900">
        <ele>587.514</ele>
        <time>2025-06-28T17:58:24.098628210Z</time>
      </trkpt>
      <trkpt lat="41.228803" lon="-6.632102">
        <ele>587.506</ele>
        <time>2025-06-28T17:59:04.098631166Z</time>
      </trkpt>
      <trkpt lat="41.228883" lon="-6.632328">
        <ele>586.564</ele>
        <time>2025-06-28T17:59:44.098634071Z</time>
      </trkpt>
      <trkpt lat="41.228951" lon="-6.632551">
        <ele>584.638</ele>
        <time>2025-06-28T18:00:24.098636956Z</time>
      </trkpt>
      <trkpt lat="41.229026" lon="-6.632781">
        <ele>584.160</ele>
        <time>2025-06-28T18:01:04.098639832Z</time>
      </trkpt>
      <trkpt lat="41.229083" lon="-6.633014">
        <ele>584.171</ele>
        <time>2025-06-28T18:01:44.098642667Z</time>
      </trkpt>
      <trkpt lat="41.229174" lon="-6.633235">
        <ele>583.253</ele>
        <time>2025-06-28T18:02:24.098645522Z</time>
      </trkpt>
      <trkpt lat="41.229324" lon="-6.633387">
        <ele>582.213</ele>
        <time>2025-06-28T18:03:04.098648468Z</time>
      </trkpt>
      <trkpt lat="41.229484" lon="-6.633491">
        <ele>582.295</ele>
        <time>2025-06-28T18:03:44.098651413Z</time>
      </trkpt>
      <trkpt lat="41.229647" lon="-6.633600">
        <ele>582.249</ele>
        <time>2025-06-28T18:04:24.098655020Z</time>
      </trkpt>
      <trkpt lat="41.229822" lon="-6.633690">
        <ele>581.723</ele>
        <time>2025-06-28T18:05:04.098657976Z</time>
      </trkpt>
      <trkpt lat="41.230001" lon="-6.633736">
        <ele>581.306</ele>
        <time>2025-06-28T18:05:44.098660881Z</time>
      </trkpt>
      <trkpt lat="41.230175" lon="-6.633830">
        <ele>582.251</ele>
        <time>2025-06-28T18:06:24.098663767Z</time>
      </trkpt>
      <trkpt lat="41.230318" lon="-6.633969">
        <ele>584.165</ele>
        <time>2025-06-28T18:07:04.098666662Z</time>
      </trkpt>
      <trkpt lat="41.230415" lon="-6.634190">
        <ele>584.157</ele>
        <time>2025-06-28T18:07:44.098669557Z</time>
      </trkpt>
      <trkpt lat="41.230498" lon="-6.634415">
        <ele>585.618</ele>
        <time>2025-06-28T18:08:24.098672433Z</time>
      </trkpt>
      <trkpt lat="41.230522" lon="-6.634666">
        <ele>588.060</ele>
        <time>2025-06-28T18:09:04.098675318Z</time>
      </trkpt>
      <trkpt lat="41.230450" lon="-6.634888">
        <ele>588.520</ele>
        <time>2025-06-28T18:09:44.098678224Z</time>
      </trkpt>
      <trkpt lat="41.230333" lon="-6.635085">
        <ele>588.569</ele>
        <time>2025-06-28T18:10:24.098681149Z</time>
      </trkpt>
      <trkpt lat="41.230191" lon="-6.635250">
        <ele>587.504</ele>
        <time>2025-06-28T18:11:04.098684045Z</time>
      </trkpt>
      <trkpt lat="41.230051" lon="-6.635401">
        <ele>587.024</ele>
        <time>2025-06-28T18:11:44.098686980Z</time>
      </trkpt>
      <trkpt lat="41.229914" lon="-6.635565">
        <ele>586.506</ele>
        <time>2025-06-28T18:12:24.098689865Z</time>
      </trkpt>
      <trkpt lat="41.229788" lon="-6.635745">
        <ele>586.598</ele>
        <time>2025-06-28T18:13:04.098692701Z</time>
      </trkpt>
      <trkpt lat="41.229688" lon="-6.635952">
        <ele>585.162</ele>
        <time>2025-06-28T18:13:44.098695566Z</time>
      </trkpt>
      <trkpt lat="41.229688" lon="-6.636110">
        <ele>585.634</ele>
        <time>2025-06-28T18:14:24.098698441Z</time>
      </trkpt>
      <trkpt lat="41.229876" lon="-6.636213">
        <ele>587.025</ele>
        <time>2025-06-28T18:15:04.098701337Z</time>
      </trkpt>
      <trkpt lat="41.230064" lon="-6.636295">
        <ele>588.997</ele>
        <time>2025-06-28T18:15:44.098704202Z</time>
      </trkpt>
      <trkpt lat="41.230229" lon="-6.636430">
        <ele>590.957</ele>
        <time>2025-06-28T18:16:24.098707088Z</time>
      </trkpt>
      <trkpt lat="41.230359" lon="-6.636617">
        <ele>592.893</ele>
        <time>2025-06-28T18:17:04.098710033Z</time>
      </trkpt>
      <trkpt lat="41.230464" lon="-6.636824">
        <ele>593.365</ele>
        <time>2025-06-28T18:17:44.098712909Z</time>
      </trkpt>
      <trkpt lat="41.230552" lon="-6.637047">
        <ele>594.721</ele>
        <time>2025-06-28T18:18:24.098715864Z</time>
      </trkpt>
      <trkpt lat="41.230651" lon="-6.637246">
        <ele>596.606</ele>
        <time>2025-06-28T18:19:04.098718790Z</time>
      </trkpt>
      <trkpt lat="41.230761" lon="-6.637275">
        <ele>597.171</ele>
        <time>2025-06-28T18:19:44.098721635Z</time>
      </trkpt>
      <trkpt lat="41.230940" lon="-6.637215">
        <ele>599.025</ele>
        <time>2025-06-28T18:20:24.098724560Z</time>
      </trkpt>
      <trkpt lat="41.231115" lon="-6.637170">
        <ele>601.077</ele>
        <time>2025-06-28T18:21:04.098727436Z</time>
      </trkpt>
      <trkpt lat="41.231292" lon="-6.637168">
        <ele>602.948</ele>
        <time>2025-06-28T18:21:44.098730271Z</time>
      </trkpt>
      <trkpt lat="41.231485" lon="-6.637209">
        <ele>604.840</ele>
        <time>2025-06-28T18:22:24.098733156Z</time>
      </trkpt>
      <trkpt lat="41.231659" lon="-6.637242">
        <ele>604.830</ele>
        <time>2025-06-28T18:23:04.098736102Z</time>
      </trkpt>
      <trkpt lat="41.231844" lon="-6.637286">
        <ele>605.892</ele>
        <time>2025-06-28T18:23:44.098739027Z</time>
      </trkpt>
      <trkpt lat="41.232024" lon="-6.637288">
        <ele>606.773</ele>
        <time>2025-06-28T18:24:24.098741923Z</time>
      </trkpt>
      <trkpt lat="41.232204" lon="-6.637235">
        <ele>609.120</ele>
        <time>2025-06-28T18:25:04.098744838Z</time>
      </trkpt>
      <trkpt lat="41.232390" lon="-6.637209">
        <ele>612.006</ele>
        <time>2025-06-28T18:25:44.098747724Z</time>
      </trkpt>
      <trkpt lat="41.232565" lon="-6.637274">
        <ele>614.911</ele>
        <time>2025-06-28T18:26:24.098750589Z</time>
      </trkpt>
      <trkpt lat="41.232718" lon="-6.637411">
        <ele>616.855</ele>
        <time>2025-06-28T18:27:04.098753434Z</time>
      </trkpt>
      <trkpt lat="41.232873" lon="-6.637531">
        <ele>619.247</ele>
        <time>2025-06-28T18:27:44.098756330Z</time>
      </trkpt>
      <trkpt lat="41.233028" lon="-6.637657">
        <ele>622.188</ele>
        <time>2025-06-28T18:28:24.098759205Z</time>
      </trkpt>
      <trkpt lat="41.233194" lon="-6.637776">
        <ele>623.110</ele>
        <time>2025-06-28T18:29:04.098762040Z</time>
      </trkpt>
      <trkpt lat="41.233357" lon="-6.637892">
        <ele>625.010</ele>
        <time>2025-06-28T18:29:44.098772119Z</time>
      </trkpt>
      <trkpt lat="41.233528" lon="-6.637995">
        <ele>627.489</ele>
        <time>2025-06-28T18:30:24.098775115Z</time>
      </trkpt>
      <trkpt lat="41.233697" lon="-6.638083">
        <ele>628.406</ele>
        <time>2025-06-28T18:31:04.098777980Z</time>
      </trkpt>
      <trkpt lat="41.233873" lon="-6.638174">
        <ele>630.326</ele>
        <time>2025-06-28T18:31:44.098780906Z</time>
      </trkpt>
      <trkpt lat="41.234041" lon="-6.638259">
        <ele>631.706</ele>
        <time>2025-06-28T18:32:24.098783781Z</time>
      </trkpt>
      <trkpt lat="41.234210" lon="-6.638351">
        <ele>633.640</ele>
        <time>2025-06-28T18:33:04.098786697Z</time>
      </trkpt>
      <trkpt lat="41.234392" lon="-6.638437">
        <ele>634.134</ele>
        <time>2025-06-28T18:33:44.098789602Z</time>
      </trkpt>
      <trkpt lat="41.234562" lon="-6.638516">
        <ele>634.666</ele>
        <time>2025-06-28T18:34:24.098792487Z</time>
      </trkpt>
      <trkpt lat="41.234743" lon="-6.638575">
        <ele>635.137</ele>
        <time>2025-06-28T18:35:04.098795363Z</time>
      </trkpt>
      <trkpt lat="41.234919" lon="-6.638636">
        <ele>637.539</ele>
        <time>2025-06-28T18:35:44.098798288Z</time>
      </trkpt>
      <trkpt lat="41.235105" lon="-6.638704">
        <ele>639.479</ele>
        <time>2025-06-28T18:36:24.098801194Z</time>
      </trkpt>
      <trkpt lat="41.235282" lon="-6.638766">
        <ele>640.971</ele>
        <time>2025-06-28T18:37:04.098804129Z</time>
      </trkpt>
      <trkpt lat="41.235467" lon="-6.638797">
        <ele>643.341</ele>
        <time>2025-06-28T18:37:44.098807065Z</time>
      </trkpt>
      <trkpt lat="41.235652" lon="-6.638823">
        <ele>644.715</ele>
        <time>2025-06-28T18:38:24.098809980Z</time>
      </trkpt>
      <trkpt lat="41.235838" lon="-6.638868">
        <ele>645.706</ele>
        <time>2025-06-28T18:39:04.098812876Z</time>
      </trkpt>
      <trkpt lat="41.236017" lon="-6.638950">
        <ele>646.179</ele>
        <time>2025-06-28T18:39:44.098815741Z</time>
      </trkpt>
      <trkpt lat="41.236184" lon="-6.639038">
        <ele>646.113</ele>
        <time>2025-06-28T18:40:24.098818576Z</time>
      </trkpt>
      <trkpt lat="41.236362" lon="-6.639130">
        <ele>646.155</ele>
        <time>2025-06-28T18:41:04.098821482Z</time>
      </trkpt>
      <trkpt lat="41.236528" lon="-6.639222">
        <ele>646.656</ele>
        <time>2025-06-28T18:41:44.098824307Z</time>
      </trkpt>
      <trkpt lat="41.236696" lon="-6.639311">
        <ele>646.678</ele>
        <time>2025-06-28T18:42:24.098827182Z</time>
      </trkpt>
      <trkpt lat="41.236877" lon="-6.639411">
        <ele>646.658</ele>
        <time>2025-06-28T18:43:04.098830058Z</time>
      </trkpt>
      <trkpt lat="41.237052" lon="-6.639506">
        <ele>647.196</ele>
        <time>2025-06-28T18:43:44.098832993Z</time>
      </trkpt>
      <trkpt lat="41.237216" lon="-6.639617">
        <ele>646.631</ele>
        <time>2025-06-28T18:44:24.098835899Z</time>
      </trkpt>
      <trkpt lat="41.237362" lon="-6.639766">
        <ele>646.624</ele>
        <time>2025-06-28T18:45:04.098838784Z</time>
      </trkpt>
      <trkpt lat="41.237513" lon="-6.639913">
        <ele>645.706</ele>
        <time>2025-06-28T18:45:44.098841649Z</time>
      </trkpt>
      <trkpt lat="41.237661" lon="-6.640046">
        <ele>645.251</ele>
        <time>2025-06-28T18:46:24.098844505Z</time>
      </trkpt>
      <trkpt lat="41.237810" lon="-6.640188">
        <ele>643.315</ele>
        <time>2025-06-28T18:47:04.098847380Z</time>
      </trkpt>
      <trkpt lat="41.237966" lon="-6.640333">
        <ele>642.377</ele>
        <time>2025-06-28T18:47:44.098850286Z</time>
      </trkpt>
      <trkpt lat="41.238108" lon="-6.640475">
        <ele>641.378</ele>
        <time>2025-06-28T18:48:24.098853171Z</time>
      </trkpt>
      <trkpt lat="41.238254" lon="-6.640615">
        <ele>639.970</ele>
        <time>2025-06-28T18:49:04.098856187Z</time>
      </trkpt>
      <trkpt lat="41.238410" lon="-6.640755">
        <ele>637.530</ele>
        <time>2025-06-28T18:49:44.098859142Z</time>
      </trkpt>
      <trkpt lat="41.238585" lon="-6.640814">
        <ele>636.041</ele>
        <time>2025-06-28T18:50:24.098862128Z</time>
      </trkpt>
      <trkpt lat="41.238767" lon="-6.640837">
        <ele>635.681</ele>
        <time>2025-06-28T18:51:04.098865043Z</time>
      </trkpt>
      <trkpt lat="41.238954" lon="-6.640872">
        <ele>633.609</ele>
        <time>2025-06-28T18:51:44.098867939Z</time>
      </trkpt>
      <trkpt lat="41.239131" lon="-6.640909">
        <ele>632.206</ele>
        <time>2025-06-28T18:52:24.098870884Z</time>
      </trkpt>
      <trkpt lat="41.239314" lon="-6.640971">
        <ele>631.276</ele>
        <time>2025-06-28T18:53:04.098873880Z</time>
      </trkpt>
      <trkpt lat="41.239476" lon="-6.641076">
        <ele>630.820</ele>
        <time>2025-06-28T18:53:44.098876976Z</time>
      </trkpt>
      <trkpt lat="41.239626" lon="-6.641211">
        <ele>629.832</ele>
        <time>2025-06-28T18:54:24.098879861Z</time>
      </trkpt>
      <trkpt lat="41.239793" lon="-6.641316">
        <ele>626.433</ele>
        <time>2025-06-28T18:55:04.098883418Z</time>
      </trkpt>
      <trkpt lat="41.239939" lon="-6.641463">
        <ele>625.525</ele>
        <time>2025-06-28T18:55:44.098886293Z</time>
      </trkpt>
      <trkpt lat="41.240047" lon="-6.641626">
        <ele>624.595</ele>
        <time>2025-06-28T18:56:24.098889158Z</time>
      </trkpt>
      <trkpt lat="41.240158" lon="-6.641815">
        <ele>622.117</ele>
        <time>2025-06-28T18:57:04.098892104Z</time>
      </trkpt>
      <trkpt lat="41.240236" lon="-6.642035">
        <ele>620.287</ele>
        <time>2025-06-28T18:57:44.098894989Z</time>
      </trkpt>
      <trkpt lat="41.240318" lon="-6.642246">
        <ele>617.815</ele>
        <time>2025-06-28T18:58:24.098897865Z</time>
      </trkpt>
      <trkpt lat="41.240423" lon="-6.642378">
        <ele>617.306</ele>
        <time>2025-06-28T18:59:04.098900760Z</time>
      </trkpt>
      <trkpt lat="41.240549" lon="-6.642556">
        <ele>616.883</ele>
        <time>2025-06-28T18:59:44.098903665Z</time>
      </trkpt>
      <trkpt lat="41.240705" lon="-6.642691">
        <ele>616.397</ele>
        <time>2025-06-28T19:00:24.098906551Z</time>
      </trkpt>
      <trkpt lat="41.240857" lon="-6.642809">
        <ele>615.499</ele>
        <time>2025-06-28T19:01:04.098910047Z</time>
      </trkpt>
      <trkpt lat="41.240985" lon="-6.642978">
        <ele>615.410</ele>
        <time>2025-06-28T19:01:44.098912943Z</time>
      </trkpt>
      <trkpt lat="41.241115" lon="-6.643158">
        <ele>617.332</ele>
        <time>2025-06-28T19:02:24.098915808Z</time>
      </trkpt>
      <trkpt lat="41.241258" lon="-6.643300">
        <ele>616.362</ele>
        <time>2025-06-28T19:03:04.098918664Z</time>
      </trkpt>
      <trkpt lat="41.241420" lon="-6.643416">
        <ele>614.472</ele>
        <time>2025-06-28T19:03:44.098921619Z</time>
      </trkpt>
      <trkpt lat="41.241496" lon="-6.643626">
        <ele>613.913</ele>
        <time>2025-06-28T19:04:24.098924484Z</time>
      </trkpt>
      <trkpt lat="41.241518" lon="-6.643865">
        <ele>612.014</ele>
        <time>2025-06-28T19:05:04.098927390Z</time>
      </trkpt>
      <trkpt lat="41.241567" lon="-6.644097">
        <ele>609.606</ele>
        <time>2025-06-28T19:05:44.098930285Z</time>
      </trkpt>
      <trkpt lat="41.241593" lon="-6.644348">
        <ele>608.269</ele>
        <time>2025-06-28T19:06:24.098933131Z</time>
      </trkpt>
      <trkpt lat="41.241568" lon="-6.644493">
        <ele>607.253</ele>
        <time>2025-06-28T19:07:04.098936016Z</time>
      </trkpt>
      <trkpt lat="41.241496" lon="-6.644719">
        <ele>605.815</ele>
        <time>2025-06-28T19:07:44.098938911Z</time>
      </trkpt>
      <trkpt lat="41.241501" lon="-6.644795">
        <ele>605.326</ele>
        <time>2025-06-28T19:08:24.098947568Z</time>
      </trkpt>
      <trkpt lat="41.241541" lon="-6.644915">
        <ele>604.898</ele>
        <time>2025-06-28T19:09:04.098952437Z</time>
      </trkpt>
      <trkpt lat="41.241592" lon="-6.645131">
        <ele>601.968</ele>
        <time>2025-06-28T19:09:44.098960872Z</time>
      </trkpt>
      <trkpt lat="41.241618" lon="-6.645221">
        <ele>604.891</ele>
        <time>2025-06-28T19:10:24.098966403Z</time>
      </trkpt>
      <trkpt lat="41.241727" lon="-6.645422">
        <ele>601.481</ele>
        <time>2025-06-28T19:11:04.098970410Z</time>
      </trkpt>
      <trkpt lat="41.241844" lon="-6.645619">
        <ele>599.019</ele>
        <time>2025-06-28T19:11:44.098973336Z</time>
      </trkpt>
      <trkpt lat="41.242012" lon="-6.645690">
        <ele>598.106</ele>
        <time>2025-06-28T19:12:24.098976281Z</time>
      </trkpt>
      <trkpt lat="41.242159" lon="-6.645835">
        <ele>595.221</ele>
        <time>2025-06-28T19:13:04.098979197Z</time>
      </trkpt>
      <trkpt lat="41.242271" lon="-6.646009">
        <ele>591.375</ele>
        <time>2025-06-28T19:13:44.098982072Z</time>
      </trkpt>
      <trkpt lat="41.242458" lon="-6.646079">
        <ele>587.577</ele>
        <time>2025-06-28T19:14:24.098985028Z</time>
      </trkpt>
      <trkpt lat="41.242637" lon="-6.646135">
        <ele>584.178</ele>
        <time>2025-06-28T19:15:04.098987983Z</time>
      </trkpt>
      <trkpt lat="41.242814" lon="-6.646076">
        <ele>582.230</ele>
        <time>2025-06-28T19:15:44.098990889Z</time>
      </trkpt>
      <trkpt lat="41.242989" lon="-6.645974">
        <ele>580.390</ele>
        <time>2025-06-28T19:16:24.098993814Z</time>
      </trkpt>
      <trkpt lat="41.243163" lon="-6.645915">
        <ele>580.334</ele>
        <time>2025-06-28T19:17:04.098996800Z</time>
      </trkpt>
      <trkpt lat="41.243347" lon="-6.645906">
        <ele>579.355</ele>
        <time>2025-06-28T19:17:44.098999745Z</time>
      </trkpt>
      <trkpt lat="41.243531" lon="-6.645882">
        <ele>579.310</ele>
        <time>2025-06-28T19:18:24.099002671Z</time>
      </trkpt>
      <trkpt lat="41.243571" lon="-6.646002">
        <ele>576.906</ele>
        <time>2025-06-28T19:19:04.099005566Z</time>
      </trkpt>
      <trkpt lat="41.243390" lon="-6.646071">
        <ele>574.035</ele>
        <time>2025-06-28T19:19:44.099008512Z</time>
      </trkpt>
      <trkpt lat="41.243213" lon="-6.646143">
        <ele>573.159</ele>
        <time>2025-06-28T19:20:24.099011417Z</time>
      </trkpt>
      <trkpt lat="41.243035" lon="-6.646217">
        <ele>571.631</ele>
        <time>2025-06-28T19:21:04.099014292Z</time>
      </trkpt>
      <trkpt lat="41.242889" lon="-6.646365">
        <ele>571.232</ele>
        <time>2025-06-28T19:21:44.099017188Z</time>
      </trkpt>
      <trkpt lat="41.242790" lon="-6.646584">
        <ele>571.244</ele>
        <time>2025-06-28T19:22:24.099020043Z</time>
      </trkpt>
      <trkpt lat="41.242680" lon="-6.646794">
        <ele>569.234</ele>
        <time>2025-06-28T19:23:04.099022969Z</time>
      </trkpt>
      <trkpt lat="41.242516" lon="-6.646896">
        <ele>567.387</ele>
        <time>2025-06-28T19:23:44.099025974Z</time>
      </trkpt>
      <trkpt lat="41.242335" lon="-6.646877">
        <ele>563.542</ele>
        <time>2025-06-28T19:24:24.099028890Z</time>
      </trkpt>
      <trkpt lat="41.242173" lon="-6.646877">
        <ele>563.026</ele>
        <time>2025-06-28T19:25:04.099031755Z</time>
      </trkpt>
      <trkpt lat="41.242306" lon="-6.647040">
        <ele>560.606</ele>
        <time>2025-06-28T19:25:44.099034661Z</time>
      </trkpt>
      <trkpt lat="41.242474" lon="-6.647162">
        <ele>557.740</ele>
        <time>2025-06-28T19:26:24.099037536Z</time>
      </trkpt>
      <trkpt lat="41.242517" lon="-6.647346">
        <ele>555.814</ele>
        <time>2025-06-28T19:27:04.099040411Z</time>
      </trkpt>
      <trkpt lat="41.242338" lon="-6.647291">
        <ele>551.596</ele>
        <time>2025-06-28T19:27:44.099043257Z</time>
      </trkpt>
      <trkpt lat="41.242165" lon="-6.647223">
        <ele>548.617</ele>
        <time>2025-06-28T19:28:24.099046122Z</time>
      </trkpt>
      <trkpt lat="41.242214" lon="-6.647405">
        <ele>544.779</ele>
        <time>2025-06-28T19:29:04.099049037Z</time>
      </trkpt>
      <trkpt lat="41.242349" lon="-6.647581">
        <ele>540.979</ele>
        <time>2025-06-28T19:29:44.099052003Z</time>
      </trkpt>
      <trkpt lat="41.242445" lon="-6.647797">
        <ele>537.077</ele>
        <time>2025-06-28T19:30:24.099054938Z</time>
      </trkpt>
      <trkpt lat="41.242537" lon="-6.648012">
        <ele>532.261</ele>
        <time>2025-06-28T19:31:04.099057844Z</time>
      </trkpt>
      <trkpt lat="41.242614" lon="-6.648231">
        <ele>527.927</ele>
        <time>2025-06-28T19:31:44.099060739Z</time>
      </trkpt>
      <trkpt lat="41.242513" lon="-6.648389">
        <ele>526.006</ele>
        <time>2025-06-28T19:32:24.099063615Z</time>
      </trkpt>
      <trkpt lat="41.242359" lon="-6.648248">
        <ele>523.129</ele>
        <time>2025-06-28T19:33:04.099066460Z</time>
      </trkpt>
      <trkpt lat="41.242215" lon="-6.648085">
        <ele>521.773</ele>
        <time>2025-06-28T19:33:44.099069365Z</time>
      </trkpt>
      <trkpt lat="41.242069" lon="-6.647924">
        <ele>521.755</ele>
        <time>2025-06-28T19:34:24.099072221Z</time>
      </trkpt>
      <trkpt lat="41.241916" lon="-6.647767">
        <ele>521.256</ele>
        <time>2025-06-28T19:35:04.099075086Z</time>
      </trkpt>
      <trkpt lat="41.241760" lon="-6.647612">
        <ele>520.728</ele>
        <time>2025-06-28T19:35:44.099078002Z</time>
      </trkpt>
      <trkpt lat="41.241604" lon="-6.647487">
        <ele>519.778</ele>
        <time>2025-06-28T19:36:24.099080897Z</time>
      </trkpt>
      <trkpt lat="41.241451" lon="-6.647358">
        <ele>518.873</ele>
        <time>2025-06-28T19:37:04.099083863Z</time>
      </trkpt>
      <trkpt lat="41.241286" lon="-6.647242">
        <ele>517.385</ele>
        <time>2025-06-28T19:37:44.099086778Z</time>
      </trkpt>
      <trkpt lat="41.241111" lon="-6.647153">
        <ele>515.913</ele>
        <time>2025-06-28T19:38:24.099089714Z</time>
      </trkpt>
      <trkpt lat="41.240938" lon="-6.647074">
        <ele>514.006</ele>
        <time>2025-06-28T19:39:04.099092619Z</time>
      </trkpt>
      <trkpt lat="41.240758" lon="-6.646993">
        <ele>513.039</ele>
        <time>2025-06-28T19:39:44.099095554Z</time>
      </trkpt>
      <trkpt lat="41.240601" lon="-6.646878">
        <ele>511.653</ele>
        <time>2025-06-28T19:40:24.099098400Z</time>
      </trkpt>
      <trkpt lat="41.240464" lon="-6.646714">
        <ele>510.135</ele>
        <time>2025-06-28T19:41:04.099101345Z</time>
      </trkpt>
      <trkpt lat="41.240318" lon="-6.646567">
        <ele>507.786</ele>
        <time>2025-06-28T19:41:44.099104241Z</time>
      </trkpt>
      <trkpt lat="41.240173" lon="-6.646420">
        <ele>506.888</ele>
        <time>2025-06-28T19:42:24.099107176Z</time>
      </trkpt>
      <trkpt lat="41.240033" lon="-6.646266">
        <ele>506.368</ele>
        <time>2025-06-28T19:43:04.099110032Z</time>
      </trkpt>
      <trkpt lat="41.239856" lon="-6.646267">
        <ele>504.861</ele>
        <time>2025-06-28T19:43:44.099113037Z</time>
      </trkpt>
      <trkpt lat="41.239697" lon="-6.646385">
        <ele>503.421</ele>
        <time>2025-06-28T19:44:24.099115933Z</time>
      </trkpt>
      <trkpt lat="41.239537" lon="-6.646527">
        <ele>501.913</ele>
        <time>2025-06-28T19:45:04.099118868Z</time>
      </trkpt>
      <trkpt lat="41.239390" lon="-6.646688">
        <ele>499.106</ele>
        <time>2025-06-28T19:45:44.099122475Z</time>
      </trkpt>
      <trkpt lat="41.239260" lon="-6.646868">
        <ele>499.518</ele>
        <time>2025-06-28T19:46:24.099125390Z</time>
      </trkpt>
      <trkpt lat="41.239112" lon="-6.647036">
        <ele>498.162</ele>
        <time>2025-06-28T19:47:04.099128306Z</time>
      </trkpt>
      <trkpt lat="41.238975" lon="-6.647186">
        <ele>496.214</ele>
        <time>2025-06-28T19:47:44.099138395Z</time>
      </trkpt>
      <trkpt lat="41.238859" lon="-6.647380">
        <ele>493.875</ele>
        <time>2025-06-28T19:48:24.099141370Z</time>
      </trkpt>
      <trkpt lat="41.238712" lon="-6.647522">
        <ele>492.867</ele>
        <time>2025-06-28T19:49:04.099144246Z</time>
      </trkpt>
      <trkpt lat="41.238544" lon="-6.647586">
        <ele>489.487</ele>
        <time>2025-06-28T19:49:44.099147171Z</time>
      </trkpt>
      <trkpt lat="41.238369" lon="-6.647518">
        <ele>487.572</ele>
        <time>2025-06-28T19:50:24.099150187Z</time>
      </trkpt>
      <trkpt lat="41.238205" lon="-6.647423">
        <ele>485.113</ele>
        <time>2025-06-28T19:51:04.099153102Z</time>
      </trkpt>
      <trkpt lat="41.238082" lon="-6.647455">
        <ele>481.814</ele>
        <time>2025-06-28T19:51:44.099156048Z</time>
      </trkpt>
      <trkpt lat="41.238081" lon="-6.647374">
        <ele>483.206</ele>
        <time>2025-06-28T19:52:24.099158973Z</time>
      </trkpt>
      <trkpt lat="41.237913" lon="-6.647253">
        <ele>481.879</ele>
        <time>2025-06-28T19:53:04.099161869Z</time>
      </trkpt>
      <trkpt lat="41.237774" lon="-6.647102">
        <ele>485.163</ele>
        <time>2025-06-28T19:53:44.099164794Z</time>
      </trkpt>
    </trkseg>
  </trk></gpx>